id,main,sub,category,name,lat,lon,street_address,short_desc,tucci_story,tags,source_url,quirk_level,
aci_castello_cannizzaro_01,Aci Castello,Centro Storico,landmark,Castello Normanno di Aci Castello,37.5573,15.1516,"Piazza Castello, 95021 Aci Castello CT, Italy",Medieval Norman castle built on volcanic rock overlooking the Ionian Sea.,"Sea spray on basalt walls, and gulls tracing circles above old stone.",acicastello;castle;historic;sea;view,https://en.wikipedia.org/wiki/Aci_Castello,5,
aci_castello_capo_mulini_01,Aci Castello,Aci Trezza,natural,Faraglioni dei Ciclopi,37.5611,15.1619,"Via Lungomare dei Ciclopi, 95021 Aci Trezza CT, Italy",Iconic sea stacks tied to Homer’s Odyssey; volcanic columns rising from turquoise water.,"The sea here feels alive, whispering myths older than the island itself.",acitrezza;rocks;myth;volcanic;scenic,https://en.wikipedia.org/wiki/Aci_Trezza,5,
aci_castello_centro_storico_01,Acireale,Centro Storico,landmark,Duomo di Acireale,37.6128,15.165,"Piazza del Duomo, 95024 Acireale CT, Italy","Baroque cathedral overlooking the main piazza, known for its marble façade and frescoed dome.","Church bells echo through the square, mixing with the hiss of espresso machines.",acireale;historic;baroque;cathedral;culture,https://en.wikipedia.org/wiki/Acireale_Cathedral,5,
aci_castello_centro_storico_cafe_del_castello,Adrano,Castello Normanno,castle,Castello Normanno di Adrano,37.6643,14.8341,"Piazza Umberto I, 95031 Adrano CT, Italy",Imposing 11th-century Norman fortress built by Count Ruggero.,"Basalt walls glowing red at sunset, and history breathing through thick stone.",adrano;castle;heritage;norman;landmark,https://en.wikipedia.org/wiki/Adrano_Castle,5,
aci_castello_centro_storico_trattoria_santa_maura,Agrigento,Centro Storico,cathedral,Cattedrale di San Gerlando,37.3122,13.5764,"Piazza Don Minzoni, 92100 Agrigento AG, Italy",12th-century cathedral with Norman-Gothic features and a panoramic terrace.,The bells echo over tiled rooftops and orange trees hum quietly in the wind.,agrigento;cathedral;historic;view;heritage,https://en.wikipedia.org/wiki/Agrigento_Cathedral,5,
aci_castello_ficarazzi_01,Alicudi,Alicudi Porto,harbor,Alicudi Porto,38.548,14.351,"Via Porto, 98050 Alicudi ME, Italy",Small stone harbor and the island’s lifeline to the world.,"Boats sigh against the pier, and crates of lemons change hands like secrets.",alicudi;harbor;island;arrival;authentic,https://en.wikipedia.org/wiki/Alicudi,4,
aci_trezza_bar_lava_rock,Bagheria,Aspra,harbor,Porto di Aspra,38.1048,13.4988,"Via Lungomare, 90011 Aspra PA, Italy","Fishing port east of Palermo, known for sardines and sea air.",Boats rock like old men telling stories they’ll never finish.,bagheria;harbor;fishing;seafood;authentic,https://en.wikipedia.org/wiki/Aspra,3,
aci_trezza_faraglioni_01,Augusta,Isola di Augusta,historic,Isola di Augusta (Old Town),37.236,15.223,"Via Principe Umberto, 96011 Augusta SR, Italy",Historic fortified island connected by bridges to the mainland.,The sea slaps the walls and fishermen argue about the weather like poets.,augusta;historic;island;city-center;heritage,"https://en.wikipedia.org/wiki/Augusta,_Sicily",4,
aci_trezza_gelateria_lacchea,Avola,Avola Antica,ruins,Avola Antica,36.925,15.083,"Contrada Avola Antica, 96012 Avola SR, Italy",Ruins of the original Avola destroyed by the 1693 earthquake.,The wind hums through broken walls where time lost interest in progress.,avola;ruins;heritage;historic;baroque,https://en.wikipedia.org/wiki/Avola,5,
aci_trezza_trattoria_gambero_rosso,Caltagirone,Santo Pietro,park,Bosco di Santo Pietro,37.10193,14.46125,"Bosco di Santo Pietro, SP63, 95041 Caltagirone (CT)",Large Mediterranean woodland and reserve south of town.,"Resin, cicadas, and sandy trails that quiet the mind.",park;forest;hiking;reserve,https://en.wikipedia.org/wiki/Bosco_Santo_Pietro;https://mapcarta.com/N7879989310,4,
acireale_centro_storico_caffe_del_teatro_01,Augusta,Brucoli,village,Borgo di Brucoli,37.268,15.18,"Brucoli, 96011 Augusta SR, Italy","Fishing village with stone houses, sea caves, and a small marina.","Anchors, laundry lines, and slow dinners by the tide.",augusta;village;harbor;local-life;authentic,https://en.wikipedia.org/wiki/Brucoli,4,
acireale_centro_storico_duomo_01,Caltagirone,Centro Storico,square,Piazza Municipio,37.23953,14.51462,"Piazza Municipio, 95041 Caltagirone (CT)",Main civic square with the 18th-century town hall and clock tower.,"Sun on marble steps, echoing voices, and a slow city heartbeat.",square;historic;architecture;urban,https://en.wikipedia.org/wiki/Caltagirone,2,
acireale_centro_storico_pinacoteca_zelantea_01,Caltanissetta,Centro Storico,square,Piazza Garibaldi,37.49105,14.06208,"Piazza Garibaldi, 93100 Caltanissetta (CL)",Central square surrounded by historic cafés and palazzi.,"The city’s pulse: slow, sun-baked, occasionally caffeinated.",square;historic;urban;local-life,https://en.wikipedia.org/wiki/Caltanissetta,2,
acireale_guardia_village_square_01,Aci Castello,Cannizzaro,neighborhood,Cannizzaro Beachfront,37.5368,15.1166,"Via Angelo Musco, 95021 Aci Castello CT, Italy",Coastal suburb between Catania and Aci Castello with rocky beaches and calm waters.,Locals linger over granite and gossip as waves tap the basalt shore.,acicastello;beach;urban;relax;sea,"https://en.wikipedia.org/wiki/Cannizzaro,_Aci_Castello",3,
acireale_pennisi_azienda_agrumi_01,Aci Castello,Capo Mulini,village,Capo Mulini Harbor,37.6111,15.1757,"Piazza Sant’Anna, 95024 Capo Mulini CT, Italy",Small fishing village known for seafood trattorias and lava cliffs.,The scent of grilled fish and sea salt rides the evening wind.,acicastello;harbor;seafood;coastal;authentic,https://en.wikipedia.org/wiki/Capo_Mulini,4,
acireale_pennisi_church_01,Castelbuono,Castello dei Ventimiglia,castle,Castello dei Ventimiglia,37.9331,14.0919,"Piazza Castello, 90013 Castelbuono (PA)",14th-century castle housing the Civic Museum and relics of Saint Anne.,"Stone, pride, and the faint smell of wax and devotion.",castle;museum;heritage;landmark,https://en.wikipedia.org/wiki/Castello_dei_Ventimiglia,4,
acireale_pozzillo_bar_azzurro_01,Butera,Falconara,castle,Castello di Falconara,37.145,14.178,"Contrada Falconara, 93011 Butera CL, Italy",Seaside fortress turned noble residence with private access to the beach.,Waves hit the walls like applause for old battles.,butera;castle;coast;romantic;heritage,https://en.wikipedia.org/wiki/Castello_di_Falconara,5,
acireale_pozzillo_beach_01,Avola,Avola Antica,nature,Riserva Naturale Cavagrande del Cassibile,36.9242,15.0849,"SP4 Cassibile–Avola Antica, 96012 Avola SR, Italy",Vast canyon with turquoise pools and hiking trails down limestone cliffs.,The air smells of wild thyme and ancient river prayers.,avola;nature;reserve;hiking;swimming,https://en.wikipedia.org/wiki/Cavagrande_del_Cassibile,5,
acireale_santa_maria_la_scala_porticciolo_01,Agrigento,Centro Storico,museum,Casa Natale di Luigi Pirandello,37.2898,13.5834,"Contrada Caos, 92100 Agrigento AG, Italy","Home of the Nobel Prize–winning writer, now a museum of his life and manuscripts.","Ink, dust, and the quiet rebellion of Sicilian thought.",agrigento;museum;literature;heritage;culture,https://en.wikipedia.org/wiki/Luigi_Pirandello,4,
acireale_santa_maria_la_scala_trattoria_il_porto_01,Castelbuono,Piano Sempria,park,Parco delle Madonie (access point),37.9369,14.0855,"Località Piano Sempria, 90013 Castelbuono (PA)",Access point to Madonie Park trails and picnic zones.,Beech trees and silence so thick you could spread it on bread.,park;nature;hiking;mountain,https://en.wikipedia.org/wiki/Madonie,3,
acireale_stazzo_bar_saint_vincent_01,Augusta,Megara Hyblaea (archaeological site),archaeological_site,Megara Hyblaea,37.223,15.18,"SS114, 96011 Augusta SR, Italy",Ruins of an ancient Greek colony founded in 8th century BC.,The stones still whisper in Doric.,augusta;archaeology;greek;heritage;UNESCO,https://en.wikipedia.org/wiki/Megara_Hyblaea,5,
acireale_stazzo_piazzetta_01,Bagheria,Centro Storico,museum,Museo Guttuso – Villa Cattolica,38.082,13.512,"Via Rammacca 9, 90011 Bagheria PA, Italy",Museum dedicated to painter Renato Guttuso.,Paintings that smell of sea and protest.,bagheria;museum;art;heritage;baroque,https://en.wikipedia.org/wiki/Museo_Guttuso,4,
adrano_castello_normanno_01,Caronia,Parco dei Nebrodi (north sector),park,Ingresso Nord Parco dei Nebrodi,38.033,14.46,"SP168, 98072 Caronia (ME)",Northern entrance to Sicily’s largest natural park.,"Pines whisper, boar tracks vanish into fog.",park;nature;hiking;forest,https://en.wikipedia.org/wiki/Nebrodi,3,
adrano_centro_storico_caffetteria_mannino_01,Adrano,Ponte dei Saraceni,bridge,Ponte dei Saraceni,37.6644,14.817,"Contrada San Nicola, 95031 Adrano CT, Italy",Ancient lava-stone bridge spanning the Simeto river — Roman and Arab influences.,The wind carries water’s murmur and centuries of footsteps.,adrano;bridge;heritage;roman;arab,https://en.wikipedia.org/wiki/Ponte_dei_Saraceni,5,
adrano_centro_storico_museo_ebbe_01,Agrigento,Rupe Atenea,natural,Rupe Atenea,37.3092,13.569,"Via Duomo, 92100 Agrigento AG, Italy",Limestone ridge with ancient shrines and panoramic views over the valley.,The rock holds both myth and memory.,agrigento;landform;mythology;view;heritage,https://en.wikipedia.org/wiki/Rupe_Atenea,4,
adrano_centro_storico_panificio_barone_01,Caltagirone,Scala di Santa Maria del Monte,landmark,Scala di Santa Maria del Monte,37.23881,14.51219,"Scala Santa Maria del Monte 11, 95041 Caltagirone (CT)",Iconic 142-step staircase lined with hand-painted tiles.,Each riser a story; the whole hill a lit candle on July nights.,landmark;ceramics;unesco;view,https://en.wikipedia.org/wiki/Scala_di_Santa_Maria_del_Monte_(Caltagirone);https://www.alltrails.com/it-it/italy/sicily/caltagirone,5,
adrano_centro_storico_piazza_umberto_01,Bagheria,Solanto,castle,Castello di Solanto,38.0752,13.5394,"Via Castello, 90011 Solanto PA, Italy",Aragonese fortress guarding the small harbor.,A castle that smells faintly of tuna and nobility.,bagheria;castle;historic;romantic;sea,https://en.wikipedia.org/wiki/Solanto,4,
adrano_contrada_naviccia_farmhouse_01,Agrigento,Valle dei Templi,landmark,Tempio della Concordia,37.2906,13.5839,"Valle dei Templi, 92100 Agrigento AG, Italy",Perfectly preserved Doric temple from the 5th century BC.,Sunset paints the stones gold and time folds like silk.,agrigento;temple;archaeology;UNESCO;heritage,"https://en.wikipedia.org/wiki/Temple_of_Concordia,_Agrigento",5,
adrano_ponte_dei_saraceni_01,Agrigento,Valle dei Templi,landmark,Tempio di Eracle (Heracles),37.2886,13.5852,"Valle dei Templi, 92100 Agrigento AG, Italy",Ruins of a temple dedicated to Heracles — ancient columns rising like broken ribs.,"The wind whistles through the columns, half song, half sigh.",agrigento;temple;ruins;archaeology;heritage,"https://en.wikipedia.org/wiki/Temple_of_Heracles,_Agrigento",4,
agrigento_centro_storico_duomo_01,Bagheria,Villa Palagonia,villa,Villa Palagonia,38.079,13.5122,"Piazza Garibaldi 3, 90011 Bagheria PA, Italy",18th-century Baroque villa famed for grotesque statues.,Marble monsters grin; you grin back.,bagheria;villa;baroque;heritage;architecture,https://en.wikipedia.org/wiki/Villa_Palagonia,5,
agrigento_centro_storico_pirandello_house_01,Aci Castello,Centro Storico,cafe,Caffè del Castello,37.557,15.1519,"Piazza Castello 8, 95021 Aci Castello CT, Italy","Tiny espresso bar facing the Norman castle, open since the 1950s.","A stool, a sea view, and a barista who’s seen every sunrise since 1973.",cafe;local;heritage;sea-view,"https://www.google.com/maps?q=37.557,15.1519",3,
agrigento_centro_storico_via_atenea_01,Adrano,Centro Storico,cafe,Caffetteria Mannino,37.6632,14.8329,"Via Garibaldi 9, 95031 Adrano CT, Italy",Local café known for pistachio pastries and almond granita.,"A marble counter, the click of cups, and gossip in dialect older than Italy.",adrano;cafe;local;dessert;heritage,"https://www.google.com/maps?q=37.6632,14.8329",3,
agrigento_montaperto_agriturismo_01,Caronia,Centro Storico,restaurant,Trattoria Antica Caronia,38.0171,14.4668,"Via Vittorio Emanuele 8, 98072 Caronia (ME)",Local trattoria known for pasta al nero di seppia and swordfish.,Aroma of fried garlic spills into the cobbled street.,restaurant;local;food;heritage,"https://www.google.com/maps?q=38.0171,14.4668",2,
agrigento_montaperto_church_01,Capo d’Orlando,Piscittina,park,Parco Urbano Piscittina,38.1443,14.734,"Via Consolare Antica, 98071 Capo d’Orlando (ME)",Urban park with open-air events and olive trees.,Music drifts across the grass; someone’s always late but smiling.,park;local;events;green,"https://www.google.com/maps?q=38.1443,14.734",2,
agrigento_rupe_atenea_outcrop_01,Alicudi,Alicudi Porto,bar,Bar da Antonietta,38.5482,14.3512,"Via Porto, 98050 Alicudi ME, Italy","The only true café-bar on the island, known for espresso, granita, and gossip.","Plastic chairs, sea spray, and someone always asking when the next ferry comes.",alicudi;cafe;local;harbor;authentic,"https://www.google.com/maps?q=38.5482,14.3512",3,
agrigento_rupe_atenea_panoramic_cafe_01,Bronte,Centro Storico,shop,Panificio Masaniello,37.78716,14.83427,"Via Umberto 176, 95034 Bronte (CT)",Family bakery known for pistachio bread and ‘impanata’.,"Warm dough, green crumbs, and laughter behind the counter.",shop;bakery;food;local,"https://www.google.com/maps?q=37.78716,14.83427",2,
agrigento_valle_dei_templi_museum_01,Caltagirone,Centro Storico,shop,Ceramiche Grazia,37.23798,14.51176,"Via Principe Amedeo 17, 95041 Caltagirone (CT)",Workshop producing hand-painted ceramic plates and vases.,Everything gleams — even the dust tries to look artistic.,shop;ceramics;workshop;heritage,"https://www.google.com/maps?q=37.23798,14.51176",3,
agrigento_valle_dei_templi_temple_concordia_01,Agrigento,Villaggio Mosè,cafe,Pasticceria Le Cuspidi,37.2893,13.5828,"Viale Leonardo Sciascia 208, 92100 Villaggio Mosè AG, Italy",Iconic pastry shop famous for Sicilian cassata and pistachio gelato.,"Sugar, almonds, and pride baked into every layer.",agrigento;dessert;cafe;local;heritage,"https://www.google.com/maps?q=37.2893,13.5828",3,
agrigento_valle_dei_templi_temple_heracles_01,Bagheria,Centro Storico,square,Piazza Garibaldi,38.0796,13.5115,"Piazza Garibaldi, 90011 Bagheria PA, Italy",Main square surrounded by cafés and gelaterie.,"Espresso, exhaust, and eternal debate.",bagheria;square;urban;local-life;cafe,"https://www.google.com/maps?q=38.0796,13.5115",2,
agrigento_villaggio_mose_pasticceria_01,Acireale,Pennisi,shop,Azienda Agricola Pennisi Agrumi,37.629,15.1177,"Via Pennisi 45, 95024 Acireale CT, Italy","Family farm selling local lemons, honey, and marmalade.","Hands sticky with citrus, laughter echoing from the packing shed.",acireale;farm;local;produce;citrus,"https://www.google.com/maps?q=37.629,15.1177",3,
agrigento_villaggio_mose_sanctuary_01,Butera,Piano Marina,beach,Spiaggia di Piano Marina,37.156,14.168,"SP31, 93011 Butera CL, Italy",Flat sandy strip south of Butera; quiet beaches and olive groves.,"Wind, salt, and the patience of the Mediterranean.",butera;beach;coastal;quiet;natural,"https://www.google.com/maps?q=37.156,14.168",2,
alicudi_contrada_bazzina_beach_01,Bagheria,Centro Storico,market,Mercato di Bagheria,38.0803,13.5086,"Corso Umberto I, 90011 Bagheria PA, Italy",Open-air market bursting with produce and gossip.,Every tomato has an opinion.,bagheria;market;food;urban;culture,"https://www.google.com/maps?q=38.0803,13.5086",3,
alicudi_contrada_sgurbio_01,Capo d’Orlando,San Gregorio,restaurant,Trattoria da Totò,38.1465,14.7271,"Via Andrea Doria 2, 98071 Capo d’Orlando (ME)",Family-run seafood trattoria near the beach.,"Octopus, white wine, and a sunburn that’s worth it.",restaurant;seafood;local;family-run,"https://www.google.com/maps?q=38.1465,14.7271",2,
alicudi_contrada_tonna_church_01,Avola,Gallina,beach,Spiaggia di Gallina,36.889,15.16,"Contrada Gallina, 96012 Avola SR, Italy","Quiet sandy cove south of Avola, popular with locals.",The sea forgets how to be loud here.,avola;beach;secluded;relax;swimming,"https://www.google.com/maps?q=36.889,15.16",3,
alicudi_montagna_old_house_01,Caronia,Caronia Superiore,viewpoint,Belvedere di Caronia,38.0298,14.4643,"Via Belvedere, 98072 Caronia (ME)",Scenic viewpoint overlooking the Tyrrhenian coast and Nebrodi hills.,"The horizon looks painted, then moves with the clouds.",viewpoint;panorama;nature;heritage,"https://www.google.com/maps?q=38.0298,14.4643",2,
alicudi_montagna_path_01,Caltagirone,Centro Storico,cafe,Caffè Luca,37.23791,14.51194,"Via Principe Amedeo 23, 95041 Caltagirone (CT)","Small bar serving granita, cannoli, and almond pastries.",Sugar and ceramic dust — the city’s twin addictions.,cafe;pastry;granita;local-life,"https://www.google.com/maps?q=37.23791,14.51194",1,
alicudi_porto_01,Caltanissetta,Contrada Mimiani,shop,Azienda Agricola Mimiani,37.4799,14.0459,"Contrada Mimiani, SP5, 93100 Caltanissetta (CL)",Organic olive and almond farm with tastings by appointment.,"Earth, oil, and a hospitality that feels pre-digital.",farm;olive;local;artisan,"https://www.google.com/maps?q=37.4799,14.0459",3,
alicudi_porto_bar_antonietta_01,Castelbuono,Piano Sempria,viewpoint,Belvedere di Piano Sempria,37.937,14.0856,"Via Piano Sempria, 90013 Castelbuono (PA)",High meadow with panoramic view over Madonie hills.,"Wind, bells, and clouds rehearsing their daily performance.",viewpoint;nature;mountain;relax,"https://www.google.com/maps?q=37.937,14.0856",2,
augusta_brucoli_castle_01,Bronte,Centro Storico,street,Corso Umberto I,37.78745,14.8345,"Corso Umberto I, 95034 Bronte (CT)","Main street lined with cafés, bakeries, and 19th-century façades.",Afternoons move to the rhythm of footsteps and espresso spoons.,street;urban;local-life;shopping,"https://www.google.com/maps?q=37.78745,14.8345",1,
augusta_brucoli_village_01,Bronte,Centro Storico,square,Piazza Spedalieri,37.78623,14.83279,"Piazza Spedalieri, 95034 Bronte (CT)",Central square with war memorial and views toward Etna.,Old men debate the weather like philosophers of ash.,square;view;urban;heritage,"https://www.google.com/maps?q=37.78623,14.83279",1,
augusta_castello_frederick_01,Aci Castello,Aci Trezza,bar,Bar Lava Rock,37.5612,15.1617,"Via Lungomare dei Ciclopi 52, 95021 Aci Trezza CT, Italy","Cocktail bar facing the Faraglioni, popular with divers and night swimmers.","Laughter, salt on glasses, and the sea pretending to listen.",bar;view;local;heritage,"https://www.google.com/maps?q=37.5612,15.1617",3,
augusta_faro_santa_croce_01,Bronte,Centro Storico,park,Villa Comunale di Bronte,37.78783,14.82896,"Via Vittorio Emanuele III, 95034 Bronte (CT)",Public park with 19th-century palms and benches facing Etna.,A pause of green in the city’s pistachio heart.,park;garden;view;urban,"https://www.google.com/maps?q=37.78783,14.82896",2,
augusta_faro_santa_croce_cafe_01,Agrigento,Montaperto,agriturismo,Agriturismo Passo dei Briganti,37.3345,13.5479,"C.da Montaperto 18, 92100 Agrigento AG, Italy",Farm-stay offering traditional food and views toward the temples.,"Bread, oil, wine — Sicily in edible form.",agrigento;farmstay;food;local;heritage,"https://www.google.com/maps?q=37.3345,13.5479",3,
augusta_isola_di_augusta_01,Agrigento,Rupe Atenea,cafe,Caffè Panoramico Rupe Atenea,37.3094,13.5693,"Via Duomo 46, 92100 Agrigento AG, Italy",Café perched on the ridge with sweeping views of Valle dei Templi.,Locals drink espresso slow enough to rival the centuries below.,agrigento;cafe;panoramic;heritage;local-life,"https://www.google.com/maps?q=37.3094,13.5693",3,
augusta_megara_hyblaea_01,Acireale,Santa Maria la Scala,trattoria,Trattoria Il Porto,37.6113,15.1694,"Via Marina 42, 95024 Santa Maria la Scala CT, Italy",Family-run seafood trattoria overlooking the port.,"The grill sizzles, seagulls argue, and someone opens a bottle too early.",acireale;seafood;local;harbor;authentic,"https://www.google.com/maps?q=37.6113,15.1694",3,
augusta_monte_tauro_church_01,Adrano,Centro Storico,shop,Panificio Barone,37.6634,14.8334,"Via Roma 46, 95031 Adrano CT, Italy",Bakery famous for crisp “scacciate” and sesame bread.,"Bread scent spills into the street, calling to anyone still awake.",adrano;bakery;artisan;local;heritage,"https://www.google.com/maps?q=37.6634,14.8334",3,
augusta_monte_tauro_trail_01,Bronte,Centro Storico,monument,Fontana dei Cavalieri,37.78702,14.83205,"Piazza Rosario, 95034 Bronte (CT)",Decorative fountain with lava-stone lions.,The water murmurs old gossip to the pigeons.,monument;heritage;fountain;urban,"https://www.google.com/maps?q=37.78702,14.83205",1,
augusta_porto_military_area_01,Bagheria,Aspra,church,Chiesa Maria SS. Addolorata,38.1049,13.4991,"Via San Marco 18, 90011 Aspra PA, Italy",Parish church overlooking the sea with baroque façade.,The hymns rise with the smell of salt.,bagheria;church;heritage;village;authentic,"https://www.google.com/maps?q=38.1049,13.4991",3,
avola_antica_cavagrande_01,Bagheria,Monte Catalfano,viewpoint,Belvedere di Monte Catalfano,38.1095,13.518,"Via Monte Catalfano, 90011 Bagheria PA, Italy",Panoramic overlook of the Gulf of Palermo.,Light curls around the coastline like smoke.,bagheria;viewpoint;hiking;nature;photo,"https://www.google.com/maps?q=38.1095,13.518",2,
avola_antica_ruins_01,Capo d’Orlando,San Gregorio,cafe,Bar Onda Blu,38.146,14.7268,"Via Andrea Doria 4, 98071 Capo d’Orlando (ME)","Beachfront bar for granite, cocktails and slow afternoons.",The ice melts faster than the day ends.,cafe;bar;beach;local,"https://www.google.com/maps?q=38.146,14.7268",1,
avola_antica_san_rocco_church_01,Acireale,Centro Storico,cafe,Caffè del Teatro Bellini,37.6126,15.1634,"Via Romeo 21, 95024 Acireale CT, Italy","Historic café facing Teatro Bellini, famous for granite and cannoli.","Coffee, laughter, and a waiter who still wears a vest in summer heat.",acireale;cafe;heritage;local-life;dessert,"https://www.google.com/maps?q=37.6126,15.1634",3,
avola_borgellusa_marina_01,Augusta,Faro Santa Croce,cafe,Caffè Faro Santa Croce,37.2279,15.2454,"Contrada Santa Croce, 96011 Augusta SR, Italy",Seafront café beside the lighthouse serving granita and pastries.,"Sugar, sea spray, and the faint rhythm of the light’s rotation.",augusta;cafe;seaside;local;authentic,"https://www.google.com/maps?q=37.2279,15.2454",3,
avola_borgellusa_trattoria_01,Caltagirone,Centro Storico,shop,Pasticceria Corum,37.23914,14.51402,"Corso Vittorio Emanuele 100, 95041 Caltagirone (CT)",Pastry shop blending traditional Sicilian sweets and modern style.,The scent of pistachio cream beats any cathedral bell.,shop;pastry;dessert;local,"https://www.google.com/maps?q=37.23914,14.51402",2,
avola_gallina_beach_01,Caltagirone,Centro Storico,shop,Ceramiche Terracotta,37.23831,14.51188,"Via Principe Amedeo 20, 95041 Caltagirone (CT)",Family-run pottery studio showcasing traditional Moor heads.,"Kiln doors creak, and paintbrushes hum their hymn.",shop;ceramics;artisan;traditional,"https://www.google.com/maps?q=37.23831,14.51188",3,
avola_gallina_reserve_access_01,Aci Castello,Aci Trezza,trattoria,Trattoria Il Gambero Rosso,37.5613,15.1621,"Via Lungomare dei Ciclopi 88, 95021 Aci Trezza CT, Italy","Seafood restaurant right by the pier, loved by locals for decades.","Octopus on the grill, laughter under striped awnings, the tide as applause.",trattoria;seafood;harbor;authentic,"https://www.google.com/maps?q=37.5613,15.1621",4,
avola_pantanello_beach_01,Bronte,Centro Storico,cafe,Gelateria del Pistacchio,37.78686,14.83248,"Via Umberto 195, 95034 Bronte (CT)",Artisan gelato and granita made with Bronte DOP pistachios.,Cold sweetness and Etna’s dust still on your shoes.,cafe;gelato;pistachio;local-life,"https://www.google.com/maps?q=37.78686,14.83248",2,
avola_pantanello_boardwalk_01,Acireale,Stazzo,bar,Bar Saint Vincent,37.639,15.1836,"Piazza Mantova 9, 95024 Stazzo CT, Italy","Beloved local bar for granite and aperitivi, facing the harbor.","Plastic chairs, orange spritz, and laughter tangled in the wind.",acireale;bar;granita;local-life;seaside,"https://www.google.com/maps?q=37.639,15.1836",3,
bagheria_aspra_church_01,Caronia,Marina di Caronia,harbor,Porticciolo di Marina di Caronia,38.0294,14.4707,"Via del Mare, 98072 Marina di Caronia (ME)",Small fishing harbor and pier with colorful boats.,"Diesel, salt, and soft voices repairing nets.",harbor;fishing;local;coastal,"https://www.google.com/maps?q=38.0294,14.4707",2,
bagheria_aspra_museum_01,Bronte,Centro Storico,shop,Artigianato Etneo – Ceramiche & Legno,37.7869,14.8337,"Via Umberto 181, 95034 Bronte (CT)",Local crafts shop selling handmade ceramics and wooden icons.,Everything glazed with pride and fingerprints.,shop;artisan;ceramics;handmade,"https://www.google.com/maps?q=37.7869,14.8337",2,
bagheria_aspra_porto_01,Caltagirone,Centro Storico,shop,Bottega Tornatore,37.23856,14.51203,"Via Principe Amedeo 12, 95041 Caltagirone (CT)",Small artisan ceramic workshop specializing in tiles and plates.,"Clay, coffee, and faint radio music — Sicilian perfection.",shop;ceramics;artisan;craft,"https://www.google.com/maps?q=37.23856,14.51203",3,
bagheria_centro_storico_market_01,Castelbuono,Centro Storico,cafe,Bar Sant’Anna,37.9334,14.0895,"Via Sant’Anna 10, 90013 Castelbuono (PA)",Historic café near the main square serving granite and cocktails.,The chatter never dies — it just changes topics.,cafe;historic;bar;local-life,"https://www.google.com/maps?q=37.9334,14.0895",1,
bagheria_centro_storico_piazza_01,Caltanissetta,Centro Storico,shop,Ceramiche Tornatora,37.49112,14.06303,"Corso Vittorio Emanuele II 68, 93100 Caltanissetta (CL)",Ceramic workshop and souvenir shop with hand-painted plates.,"Glaze, chatter, and that satisfying clink of craft.",shop;ceramics;artisan;local,"https://www.google.com/maps?q=37.49112,14.06303",2,
bagheria_coast_trail_01,Caltagirone,Centro Storico,shop,Panificio Villa,37.23899,14.5145,"Via Principe Umberto 11, 95041 Caltagirone (CT)",Traditional bakery with almond cookies and sesame bread.,The smell alone could convert a saint.,shop;bakery;local;food,"https://www.google.com/maps?q=37.23899,14.5145",2,
bagheria_mongerbino_cliff_01,Caltanissetta,Centro Storico,cafe,Bar Amicizia,37.49088,14.06172,"Corso Vittorio Emanuele II 26, 93100 Caltanissetta (CL)","Classic bar serving arancini, cassatine, and espresso all day.",The kind of place where gossip and steam rise together.,cafe;pastry;local;historic,"https://www.google.com/maps?q=37.49088,14.06172",1,
bagheria_monte_catalfano_belvedere_01,Avola,Pantanello,beach,Spiaggia di Pantanello,36.904,15.132,"Lungomare Pantanello, 96012 Avola SR, Italy",Central sandy beach with calm turquoise waters and beach bars.,"Families, umbrellas, and a rhythm older than tourism.",avola;beach;family;swimming;local,"https://www.google.com/maps?q=36.904,15.132",3,
bagheria_monte_catalfano_park_01,Acireale,Pozzillo,bar,Bar Azzurro,37.6747,15.1834,"Via Marina 21, 95024 Pozzillo CT, Italy",Blue-painted seaside bar with cold beer and fried calamari.,The jukebox works only when it feels like it.,acireale;bar;harbor;local;relax,"https://www.google.com/maps?q=37.6747,15.1834",2,
bagheria_san_cataldo_villa_01,Caltagirone,Centro Storico,restaurant,Trattoria Corona,37.23805,14.51232,"Via Luigi Sturzo 21, 95041 Caltagirone (CT)","Classic Sicilian trattoria near the staircase, famous for pasta alla norma.",The scent of fried aubergine lingers longer than the prayers from the steps.,restaurant;local;food;heritage,"https://www.google.com/maps?q=37.23805,14.51232",2,
bagheria_san_giovanni_church_01,Aci Castello,Centro Storico,trattoria,Trattoria Santa Maura,37.5569,15.152,"Via Savoia 4, 95021 Aci Castello CT, Italy",Family trattoria serving swordfish and pistachio pasta.,"The clang of plates, the smell of grilled fish, and someone singing out of tune.",trattoria;seafood;local;harbor,"https://www.google.com/maps?q=37.5569,15.152",4,
bagheria_solanto_castle_01,Caltagirone,Centro Storico,cafe,Bar del Teatro,37.23844,14.51344,"Via Vittorio Emanuele 123, 95041 Caltagirone (CT)","Historic café near the old civic theater, open since 1930s.","A soft clink of spoons, and the slow swirl of lemon granita.",cafe;historic;local-life,"https://www.google.com/maps?q=37.23844,14.51344",1,
bagheria_solanto_tonnara_01,Aci Castello,Aci Trezza,shop,Gelateria Lachea,37.5616,15.1613,"Via Provinciale 1, 95021 Aci Trezza CT, Italy",Historic gelateria known for lemon granita and almond brioche.,"Spoons clinking, kids arguing over flavors, and Etna watching from afar.",gelato;local;heritage;dessert,"https://www.google.com/maps?q=37.5616,15.1613",3,
bagheria_villa_aragona_cutò_01,Bronte,Maniace,viewpoint,Belvedere Etna – Strada Maniace,37.81022,14.81594,"SP17 Maniace, 95030 Bronte (CT)",Lookout point over Etna’s western slopes.,"Ash, wind, and the sound of bells from the valley.",viewpoint;hiking;etna;nature,"https://www.google.com/maps?q=37.81022,14.81594",3,
bagheria_villa_cattolica_01,Avola,Borgellusa,restaurant,Trattoria La Prua,36.9105,15.1385,"Lungomare Tremoli 47, 96012 Avola SR, Italy",Family-run restaurant with fresh seafood and local wine.,"Salt, lemon, and laughter at every table.",avola;restaurant;seafood;local;heritage,"https://www.google.com/maps?q=36.9105,15.1385",3,
bagheria_villa_palagonia_01,Avola,Borgellusa,marina,Porticciolo di Borgellusa,36.9104,15.1382,"Lungomare Tremoli, 96012 Avola SR, Italy",Small marina with fishing boats and nearby trattorie.,"Nets drying in the sun, espresso cups balancing on railings.",avola;marina;fishing;local;authentic,"https://www.google.com/maps?q=36.9104,15.1382",3,
bronte_artisan_ceramics_01,Bagheria,Mongerbino,trail,Sentiero Aspra–Mongerbino,38.098,13.523,"SP87 Coastal Path, 90011 Bagheria PA, Italy",Walking trail connecting Aspra and Mongerbino along cliffs.,The Mediterranean mutters encouragement below.,bagheria;trail;hiking;coast;nature,"https://www.google.com/maps?q=38.098,13.523",3,
bronte_belvedere_etna_01,Bronte,Centro Storico,shop,Il Pistacchio (Corica Alfio),37.7879,14.8358,"Viale Catania 62, 95034 Bronte (CT)",Retail shop dedicated to Bronte DOP pistachio products.,Green gold stacked floor to ceiling; temptation in jars and bags.,shop;food;deli;pistachio,https://ilpistacchio.it/en/home-en/,2,
bronte_capizzi_vecchia_annunziata_01,Caltagirone,Centro Storico,shop,Falcone & Passarello Ceramiche,,,"Via Roma 3/5, 95041 Caltagirone (CT)",Traditional ceramics atelier steps from the historic core.,"Clay whistles, shelves of pinecones, and a wink from the potter.",shop;ceramics;heritage,https://it-it.facebook.com/falconepassarello/;https://www.comune.caltagirone.ct.it/it/luoghi/falcone-e-passarello,3,
bronte_capizzi_vecchia_real_collegio_01,Adrano,Centro Storico,landmark,Piazza Umberto I,37.663,14.8332,"Piazza Umberto I, 95031 Adrano CT, Italy","Main square at the heart of Adrano, surrounded by lava-stone palazzi and cafés.","The hum of scooters, espresso cups clinking, and the smell of warm bread from a hidden bakery.",adrano;historic;city-center;heritage;etna-view,https://it.wikipedia.org/wiki/Adrano,4,
bronte_capizzi_vecchia_real_collegio_02,Adrano,Contrada Naviccia,rural,Casa Rurale Naviccia,37.6658,14.826,"Contrada Naviccia, 95031 Adrano CT, Italy",Quiet countryside with olive groves and volcanic soil.,"The air smells of dust, thyme, and slow afternoons.",adrano;countryside;olive;farm;authentic,https://it.wikipedia.org/wiki/Adrano,2,
bronte_centro_museo_carretto_01,Alicudi,Contrada Tonna,church,Chiesa di San Bartolo,38.5491,14.3543,"Contrada Tonna, 98050 Alicudi ME, Italy",Whitewashed 19th-century church dedicated to the island’s patron saint.,"Bells echo across the slopes, answered only by goats.",alicudi;church;heritage;view;island-life,https://it.wikipedia.org/wiki/Alicudi,4,
bronte_centro_pistacchio_store_01,Alicudi,Montagna,heritage,Casa Storica Montagna,38.5503,14.3552,"Montagna, 98050 Alicudi ME, Italy",Abandoned stone dwelling turned summer refuge by artists and hikers.,Where walls remember storms better than words.,alicudi;heritage;island;historic;view,https://it.wikipedia.org/wiki/Alicudi,2,
bronte_chiesa_rosario_01,Augusta,Monte Tauro,church,Chiesa del Monte Tauro,37.249,15.237,"Via Monte Tauro, 96011 Augusta SR, Italy",Small church perched on the hill with panoramic views over the bay.,Wind in the cypress trees sounds suspiciously like grace.,augusta;church;view;heritage;local,"https://it.wikipedia.org/wiki/Augusta,_Sicily",3,
bronte_corso_umberto_01,Bagheria,Centro Storico,church,Chiesa di San Giovanni Bosco,38.0812,13.5099,"Via Consolare 98, 90011 Bagheria PA, Italy",Neoclassical parish church in the town center.,Faith with the smell of marble polish.,bagheria;church;heritage;urban;architecture,https://it.wikipedia.org/wiki/Bagheria,2,
bronte_fontana_cavalieri_01,Butera,Centro Storico,heritage,Centro Storico di Butera,37.191,14.123,"Via Vittorio Emanuele, 93011 Butera CL, Italy",Medieval core with narrow alleys and volcanic stone houses.,Old women on doorsteps trade gossip older than the street itself.,butera;historic;village;heritage;local-life,https://it.wikipedia.org/wiki/Butera,3,
bronte_maniace_castello_nelson_01,Caronia,Centro Storico,church,Chiesa di San Nicolò di Bari,38.0172,14.4669,"Via Roma, 98072 Caronia (ME)","Main parish church built in the Norman period, overlooking the old village.","Stone, incense, and bells echoing through narrow alleys.",church;historic;norman;heritage,https://it.wikipedia.org/wiki/Caronia,4,
bronte_maniace_castello_nelson_02,Castelbuono,Centro Storico,square,Piazza Margherita,37.9332,14.0892,"Piazza Margherita, 90013 Castelbuono (PA)","Main square surrounded by cafés, gelaterias, and old palazzi.",Espresso steam meets church bells — and time politely stops.,square;historic;local-life;heritage,https://it.wikipedia.org/wiki/Castelbuono,2,
bronte_panificio_masaniello_01,Augusta,Brucoli,castle,Castello di Brucoli,37.269,15.1788,"Via Libertà, 96011 Brucoli SR, Italy",Aragonese coastal fort from the 15th century.,Even the seagulls sound noble here.,augusta;castle;heritage;coastal;fortress,https://it.wikipedia.org/wiki/Castello_di_Brucoli,4,
bronte_piazza_spedalieri_01,Caronia,Caronia Superiore,castle,Castello Normanno di Caronia,38.0302,14.4638,"Via Castello, 98072 Caronia (ME)",Ruins of the Norman castle on the ridge with panoramic views.,The wind carries the scent of thyme and old stone.,castle;historic;view;heritage,https://it.wikipedia.org/wiki/Castello_di_Caronia,4,
bronte_pistacchio_gelato_01,Caltanissetta,Centro Storico,castle,Castello di Pietrarossa,37.4808,14.0598,"Viale della Regione, 93100 Caltanissetta (CL)",Ruins of a medieval Norman fortress overlooking the valley.,"Stone skeletons and dry grass, still guarding an invisible kingdom.",castle;heritage;view;norman,https://it.wikipedia.org/wiki/Castello_di_Pietrarossa,4,
bronte_pistacchio_museum_01,Augusta,Isola di Augusta,castle,Castello Svevo di Augusta,37.2359,15.2234,"Via Castello, 96011 Augusta SR, Italy",13th-century fortress built by Frederick II overlooking the harbor.,"Stone, salt, and empire dreams hardened by the wind.",augusta;castle;heritage;frederickII;coastal,https://it.wikipedia.org/wiki/Castello_Svevo_(Augusta),5,
bronte_villa_comunale_01,Caltagirone,Centro Storico,church,Cattedrale di San Giuliano,37.23941,14.51433,"Piazza Municipio, 95041 Caltagirone (CT)",Cathedral rebuilt after the 1693 earthquake with baroque dome.,"Blue tiles, gold altars, and a hush that smells of incense and heat.",church;baroque;cathedral;heritage,https://it.wikipedia.org/wiki/Cattedrale_di_San_Giuliano_(Caltagirone),4,
butera_castello_01,Caltanissetta,Centro Storico,church,Cattedrale di Santa Maria La Nova,37.49092,14.06211,"Piazza Garibaldi, 93100 Caltanissetta (CL)",17th-century baroque cathedral dominating the main square.,"Marble saints stare down at traffic, unamused but patient.",church;baroque;cathedral;heritage,https://it.wikipedia.org/wiki/Cattedrale_di_Santa_Maria_La_Nova_(Caltanissetta),4,
butera_centro_storico_01,Caltagirone,Centro Storico,church,Chiesa di San Francesco d’Assisi all’Immacolata,,,"Piazza San Francesco d’Assisi, 95041 Caltagirone (CT)",Baroque church crowning the old town near the staircase.,"Bells, stucco and a cool nave after the climb.",church;baroque;view,https://it.wikipedia.org/wiki/Chiesa_di_San_Francesco_d%27Assisi_all%27Immacolata_(Caltagirone),3,
butera_chiesa_matrice_01,Butera,Desusino,beach,Spiaggia di Desusino,37.145,14.189,"Contrada Desusino, 93011 Butera CL, Italy",Wide sandy beach with shallow water and dunes.,Barefoot afternoons and time that forgets to count.,butera;beach;relax;summer;quiet,https://it.wikipedia.org/wiki/Desusino,2,
butera_desusino_spiaggia_01,Augusta,Faro Santa Croce,landmark,Faro di Santa Croce,37.228,15.245,"Contrada Santa Croce, 96011 Augusta SR, Italy","Historic lighthouse built in 1859, still guiding ships into the bay.",Light turns water to silver — the sea’s oldest conversation.,augusta;lighthouse;heritage;sea;coastal,https://it.wikipedia.org/wiki/Faro_di_Santa_Croce_(Augusta),4,
butera_falconara_castello_01,Aci Castello,Ficarazzi,neighborhood,Ficarazzi Residential Quarter,37.568,15.1303,"Via Ficarazzi, 95021 Aci Castello CT, Italy",Quiet residential area with citrus gardens and views of Etna.,"Morning espresso, dogs barking in distant courtyards, and sunlight on tiled roofs.",acicastello;residential;local;quiet;etna,https://it.wikipedia.org/wiki/Ficarazzi_(Aci_Castello),2,
butera_museo_civico_01,Caltanissetta,Centro Storico,landmark,Fontana del Tritone,37.49094,14.06216,"Piazza Garibaldi, 93100 Caltanissetta (CL)","Marble fountain of a triton taming a sea monster, built in 1956.","Water arches through the heat, briefly pretending it’s Rome.",landmark;fountain;art;urban,https://it.wikipedia.org/wiki/Fontana_del_Tritone_(Caltanissetta),2,
butera_piano_fiera_01,Acireale,Guardia,village,Piazza di Guardia,37.6218,15.152,"Piazza Guardia, 95024 Acireale CT, Italy",Quiet residential frazione between Etna and the sea.,"A barbershop hums, laundry dries, and Etna’s shadow stretches across tiled roofs.",acireale;residential;authentic;village;etna-view,https://it.wikipedia.org/wiki/Guardia_(Acireale),2,
butera_piano_marina_01,Caronia,Marina di Caronia,beach,Spiaggia di Marina di Caronia,38.0289,14.4714,"Lungomare, 98072 Marina di Caronia (ME)","Pebbly beach stretching along the Tyrrhenian coast, clear water and quiet vibe.",Waves roll against stones that remember ancient ships.,beach;coastal;relax;swimming,https://it.wikipedia.org/wiki/Marina_di_Caronia,3,
butera_santuario_madonna_01,Bagheria,Mongerbino,nature,Scogliera di Mongerbino,38.096,13.535,"SP87 Mongerbino, 90011 Bagheria PA, Italy",Steep cliffs and turquoise water between Aspra and Solanto.,"Cicadas, sunscreen, and grilled peppers on the terrace.",bagheria;coast;cliff;summer;relax,https://it.wikipedia.org/wiki/Mongerbino,3,
butera_torre_del_salto_01,Agrigento,Montaperto,church,Chiesa di San Lorenzo,37.3342,13.5484,"Via Chiesa, 92100 Montaperto AG, Italy",Simple countryside church overlooking olive fields and hills.,"The air smells of figs, and even the dogs nap with reverence.",agrigento;village;heritage;church;authentic,https://it.wikipedia.org/wiki/Montaperto_(Agrigento),2,
caltagirone_centro_storico_bar_del_teatro_01,Bagheria,Monte Catalfano,park,Parco Naturale di Monte Catalfano,38.1087,13.5165,"Contrada Monte Catalfano, 90011 Bagheria PA, Italy",Hillside park with hiking trails and sea views.,"Wind, thyme, and the shimmer of Palermo Bay.",bagheria;park;nature;hiking;viewpoint,https://it.wikipedia.org/wiki/Monte_Catalfano,4,
caltagirone_centro_storico_bottega_tornatore_01,Bagheria,Aspra,museum,Museo dell’Acciuga,38.1046,13.4986,"Via Cotogni 1, 90011 Aspra PA, Italy",Private museum celebrating Sicily’s anchovy tradition.,Where salt and memory age together in tin.,bagheria;museum;heritage;fishing;local-life,https://it.wikipedia.org/wiki/Museo_dell%27Acciuga,4,
caltagirone_centro_storico_caffe_luca_01,Acireale,Pennisi,village,Chiesa di San Giuseppe,37.628,15.1189,"Via Pennisi, 95024 Acireale CT, Italy","Small countryside church in lemon country, surrounded by dry stone walls.",The scent of citrus fills the air; even the pigeons look unhurried.,acireale;village;countryside;citrus;heritage,https://it.wikipedia.org/wiki/Pennisi_(Acireale),2,
caltagirone_centro_storico_ceramiche_alessi_01,Acireale,Centro Storico,museum,Pinacoteca Zelantea,37.6135,15.1608,"Via Marchese di Sangiuliano 17, 95024 Acireale CT, Italy",Civic museum with art from medieval to modern Sicily.,"Dusty frames, faded frescoes, and the slow tick of a forgotten clock.",acireale;museum;art;heritage;baroque,https://it.wikipedia.org/wiki/Pinacoteca_Zelantea,4,
caltagirone_centro_storico_ceramiche_di_martino_01,Augusta,Isola di Augusta,port,Porto di Augusta (civil section),37.2375,15.2205,"Banchina Porto, 96011 Augusta SR, Italy",Major port and naval base; one of Sicily’s busiest harbors.,"Engines, gulls, and the hum of work that never sleeps.",augusta;port;industrial;naval;active,https://it.wikipedia.org/wiki/Porto_di_Augusta,3,
caltagirone_centro_storico_ceramiche_grazia_01,Acireale,Pozzillo,beach,Pozzillo Beach,37.6751,15.1831,"Via Marina, 95024 Pozzillo CT, Italy",Black lava rock beach surrounded by lemon groves.,"Locals dive from the rocks, laughing into the waves like it’s still August.",acireale;beach;volcanic;local;summer,https://it.wikipedia.org/wiki/Pozzillo_(Acireale),3,
caltagirone_centro_storico_ceramiche_terracotta_01,Capo d’Orlando,San Gregorio,beach,Spiaggia di San Gregorio,38.1462,14.7264,"Via Trazzera Marina, 98071 Capo d’Orlando (ME)","Main beach of San Gregorio with pebbles, clear water and bars along the promenade.","Waves slap the stones, children argue over gelato, and the sea doesn’t care.",beach;swimming;coastal;local,https://it.wikipedia.org/wiki/San_Gregorio_(Capo_d%27Orlando),3,
caltagirone_centro_storico_chiesa_s_francesco_01,Acireale,Santa Maria la Scala,harbor,Porticciolo di Santa Maria la Scala,37.6114,15.1691,"Via Marina, 95024 Santa Maria la Scala CT, Italy",Tiny fishing harbor carved from lava rock below Acireale’s cliffs.,"Ropes creak, boats sway, and cats guard the day’s catch.",acireale;harbor;fishing;heritage;authentic,"https://it.wikipedia.org/wiki/Santa_Maria_la_Scala,_Acireale",4,
caltagirone_centro_storico_duomo_san_giuliano_01,Agrigento,Villaggio Mosè,church,Santuario di San Calogero,37.2894,13.583,"Via San Calogero, 92100 Agrigento AG, Italy","Shrine dedicated to Saint Calogero, the town’s patron saint.","Incense, devotion, and the whisper of old prayers in dialect.",agrigento;church;heritage;faith;local,https://it.wikipedia.org/wiki/Santuario_di_San_Calogero_(Agrigento),3,
caltagirone_centro_storico_falcone_passarello_01,Castelbuono,San Guglielmo,church,Santuario di San Guglielmo,37.9282,14.091,"Contrada San Guglielmo, 90013 Castelbuono (PA)",Monastery and pilgrimage site among forested hills.,Fig trees and incense — holiness with a view.,monastery;heritage;forest;spiritual,https://it.wikipedia.org/wiki/Santuario_di_San_Guglielmo_(Castelbuono),3,
caltagirone_centro_storico_museo_ceramica_01,Acireale,Stazzo,village,Piazzetta di Stazzo,37.6391,15.1832,"Piazza Mantova, 95024 Stazzo CT, Italy","Seaside square lined with pastel houses, cafes, and fishermen’s boats.","Coffee cups clatter, sea spray lingers, and the air smells faintly of salt and soap.",acireale;village;seaside;local-life;heritage,https://it.wikipedia.org/wiki/Stazzo_(Acireale),3,
caltagirone_centro_storico_museo_diocesano_01,Bagheria,Solanto,heritage,Tonnara di Solanto,38.0753,13.5391,"Via Castello 10, 90011 Solanto PA, Italy",Historic tuna-processing complex converted into a residence.,"Silent nets, loud history.",bagheria;tonnara;heritage;industrial;seafood,https://it.wikipedia.org/wiki/Tonnara_di_Solanto,4,
caltagirone_centro_storico_panificio_villa_01,Capo d’Orlando,San Gregorio,landmark,Torre Saracena di San Gregorio,38.1466,14.7259,"Via Trazzera Marina, 98071 Capo d’Orlando (ME)",Remains of a medieval watchtower facing the Aeolian horizon.,"Stone and silence, watching centuries of fishermen come and go.",landmark;historic;view;sea,https://it.wikipedia.org/wiki/Torre_di_San_Gregorio_(Capo_d%27Orlando),4,
caltagirone_centro_storico_pasticceria_corum_01,Agrigento,Centro Storico,street,Via Atenea,37.3112,13.5769,"Via Atenea, 92100 Agrigento AG, Italy","Main pedestrian street lined with cafés, boutiques, and balconies dripping with flowers.",Coffee chatter mixes with history older than reason.,agrigento;street;shopping;cafe;heritage,https://it.wikipedia.org/wiki/Via_Atenea,4,
caltagirone_centro_storico_piazza_municipio_01,Bagheria,Centro Storico,villa,Villa Aragona-Cutò,38.0815,13.511,"Via Consolare 105, 90011 Bagheria PA, Italy",Grand villa housing the town library and archives.,"Marble coolness, bureaucratic ghosts, and birdsong.",bagheria;villa;heritage;library;baroque,https://it.wikipedia.org/wiki/Villa_Aragona-Cutò,3,
caltagirone_centro_storico_ponte_san_francesco_01,Bagheria,Centro Storico,villa,Villa San Cataldo,38.0831,13.5101,"Via Papa Giovanni XXIII 8, 90011 Bagheria PA, Italy","18th-century villa with gardens, now a public venue.","A shell of grandeur, still proud in sunlight.",bagheria;villa;heritage;garden;baroque,https://it.wikipedia.org/wiki/Villa_San_Cataldo,3,
caltagirone_centro_storico_sofia_showroom_01,Caltagirone,Piano San Paolo,other,Piano San Paolo (hamlet center),37.15905,14.52581,"Piano San Paolo, 95041 Caltagirone (CT)",Tiny agricultural frazione on the edge of the Santo Pietro woods.,"Dusty crossroads, crates of oranges, and a sky the color of terracotta.",hamlet;agriculture;local-life,https://mapcarta.com/30256752;https://it.wikipedia.org/wiki/Piano_San_Paolo,2,
caltagirone_centro_storico_teatro_politeama_01,Caltanissetta,Centro Storico,museum,Museo Archeologico Regionale,37.4821,14.0614,"Viale della Regione 1, 93100 Caltanissetta (CL)",Museum housing prehistoric finds and Greek pottery.,"Cool halls, terracotta shards, and the hush of 3,000 years.",museum;archaeology;heritage,https://musei.sicilia.it/museo-archeologico-regionale-di-caltanissetta/,3,
caltagirone_centro_storico_trattoria_corona_01,Agrigento,Valle dei Templi,museum,Museo Archeologico Regionale Pietro Griffo,37.293,13.5821,"Contrada San Nicola, 92100 Agrigento AG, Italy",Archaeological museum holding finds from the ancient city of Akragas.,A cracked amphora still smells faintly of olive oil and empire.,agrigento;museum;archaeology;heritage;UNESCO,https://musei.sicilia.it/museo-archeologico-regionale-pietro-griffo/,4,
caltagirone_centro_storico_villa_comunale_01,Adrano,Centro Storico,museum,Museo Regionale di Adrano,37.6636,14.8339,"Via Vittorio Emanuele 142, 95031 Adrano CT, Italy",Local museum housed in a 17th-century monastery with archaeological finds and folk art.,"Old pots, stone tools, and one curator who knows every artifact’s story.",adrano;museum;archaeology;heritage;culture,https://musei.sicilia.it/museo-regionale-di-adrano/,3,
caltagirone_granieri_hamlet_center_01,Caltagirone,Centro Storico,museum,Museo Regionale della Ceramica,37.23326,14.51675,"Via Giardini Pubblici, 95041 Caltagirone (CT)",Regional museum dedicated to Sicilian ceramics inside the public gardens.,"Clay, color, and centuries of stubborn craft under cool trees.",museum;ceramics;heritage;garden,https://museodelleceramichecaltagirone.it/;https://en.wikipedia.org/wiki/Caltagirone#Main_sights,4,
caltagirone_piano_san_paolo_hamlet_center_01,Caltanissetta,Santa Flavia,church,Chiesa di Santa Flavia,37.4886,14.0732,"Via Santa Flavia, 93100 Caltanissetta (CL)",18th-century parish church serving its small neighborhood.,A small bell and the smell of Sunday bread.,church;local;heritage,https://parrocchiasantaflavia.it/,2,
caltagirone_santo_pietro_bosco_01,Capo d’Orlando,Testa di Monaco,beach,Spiaggia di Testa di Monaco,38.1424,14.738,"SP147, 98071 Capo d’Orlando (ME)","Small rocky cove under cliffs, popular for snorkeling.","The sea here breathes slower, like it remembers old sailors.",beach;snorkeling;hidden;coast,https://sicilia.italia.it/it/itinerari/mare/testa-di-monaco/,4,
caltagirone_scala_santa_maria_01,Alicudi,Contrada Bazzina,beach,Spiaggia di Bazzina,38.546,14.349,"Contrada Bazzina, 98050 Alicudi ME, Italy",Secluded pebble beach with crystal water and zero facilities.,The sea hums louder than thought itself.,alicudi;beach;secluded;swimming;nature,https://sicilia.italia.it/it/localita/alicudi,3,
caltanissetta_balate_villa_lizia_01,Avola,Avola Antica,church,Chiesa di San Rocco (ruins),36.9253,15.0837,"Contrada Avola Antica, 96012 Avola SR, Italy",Remains of a small Baroque church overlooking the old town ruins.,Bells that rang once now echo only in the hills.,avola;church;heritage;ruins;historic,https://sicilia.italia.it/it/localita/avola,4,
caltanissetta_centro_storico_bar_amicizia_01,Butera,Centro Storico,castle,Castello di Butera,37.1897,14.1209,"Via Castello, 93011 Butera CL, Italy","Norman fortress overlooking the plain, restored tower and courtyard.","Stone, wind, and the faint echo of feudal arrogance.",butera;castle;heritage;view;architecture,https://siciliainfesta.com/monumenti/castello_di_butera.htm,4,
caltanissetta_centro_storico_castello_pietrarossa_01,Butera,Centro Storico,museum,Museo Civico Archeologico Butera,37.1907,14.124,"Piazza Dante, 93011 Butera CL, Italy",Small archaeological museum with finds from prehistoric to Greek period.,Terracotta fragments whisper of forgotten banquets.,butera;museum;archeology;heritage,https://siciliainfesta.com/monumenti/museo_civico_archeologico_di_butera.htm,3,
caltanissetta_centro_storico_cattedrale_01,Castelbuono,Contrada Liccia,restaurant,Agriturismo Bergi,37.9374,14.0812,"Contrada Liccia, 90013 Castelbuono (PA)",Farm restaurant offering organic dishes and local wine.,"Goats, laughter, and plates that never seem to empty.",restaurant;agriturismo;local;food,https://www.agriturismobergi.it/,3,
caltanissetta_centro_storico_ceramiche_tornatora_01,Caltanissetta,Contrada Mimiani,restaurant,Agriturismo Mimiani,37.4802,14.0467,"Contrada Mimiani, SP5, 93100 Caltanissetta (CL)",Rural restaurant serving homemade Sicilian food and wine.,"Wooden tables, long lunches, and the hum of cicadas.",restaurant;agriturismo;food;local-life,https://www.agriturismomimiani.it/,3,
caltanissetta_centro_storico_fontana_del_tritone_01,Caltanissetta,Sant’Anna,landmark,Ospedale Sant’Anna,37.4925,14.0582,"Via Luigi Monaco 1, 93100 Caltanissetta (CL)",Modern hospital complex east of the historic center.,"Concrete, glass, and the quiet efficiency of survival.",hospital;modern;infrastructure,https://www.asp.cl.it/ospedale-sant-anna-caltanissetta/,1,
caltanissetta_centro_storico_museo_archeologico_01,Bronte,Centro Storico,museum,Museo del Carretto Siciliano “Gullotti”,37.803451,14.807099,"Contrada Cantera, SP 17, 95034 Bronte (CT)","Private collection of painted Sicilian carts, open by appointment.","Sun-cracked paint, horse bells, and stories that refuse to retire.",museum;folk-art;artisan,https://www.carrettigullotti.it/,5,
caltanissetta_centro_storico_piazza_garibaldi_01,Augusta,Monte Tauro,hike,Sentiero di Monte Tauro,37.2495,15.2375,"Monte Tauro, 96011 Augusta SR, Italy",Trail leading to the top ridge; popular with locals for sunset walks.,The sea burns gold and the day sighs its last.,augusta;hiking;view;coastal;authentic,https://www.comune.augusta.sr.it/,3,
caltanissetta_mimiani_agriturismo_01,Bronte,Centro Storico,museum,Museo del Pistacchio,37.78636,14.83462,"Via Messina 57, 95034 Bronte (CT)",Small civic museum documenting pistachio cultivation and trade.,The air smells of roasted nuts and history.,museum;food;agriculture;heritage,https://www.comune.bronte.ct.it/pistacchio/museo.asp,3,
caltanissetta_mimiani_azienda_agricola_01,Butera,Piano della Fiera,heritage,Piano della Fiera,37.1608,14.1459,"Contrada Piano della Fiera, 93011 Butera CL, Italy",Rural plain once used for markets and fairs; still edged by olive trees.,"The ghosts of traders linger, polite but firm.",butera;plain;tradition;market;countryside,https://www.comune.butera.cl.it/,2,
caltanissetta_sant_anna_ospedale_01,Caltagirone,Centro Storico,park,Giardino Pubblico (Villa Comunale),37.23233,14.51773,"Viale Principessa Maria José, 95041 Caltagirone (CT)",19th-century public gardens with ceramic benches and views.,"Shade, tiles and birdsong stitch the hill together.",park;view;ceramics;stroll,https://www.comune.caltagirone.ct.it/it/luoghi/giardino-pubblico;https://it.wikipedia.org/wiki/Giardino_Pubblico_(Caltagirone),3,
caltanissetta_sant_anna_scuola_medica_01,Caltagirone,Granieri,other,Granieri (hamlet center),37.12733,14.57715,"Piazza Centrale, Granieri, 95041 Caltagirone (CT)",Rural hamlet in the vineyards southeast of town.,"Heat, bees, and the low murmur of farm trucks.",hamlet;vineyard;local-life,https://www.comune.caltagirone.ct.it/it/luoghi/granieri,2,
caltanissetta_santa_flavia_chiesa_01,Caltagirone,Centro Storico,landmark,Teatro Politeama,37.23848,14.51359,"Via Vittorio Emanuele 127, 95041 Caltagirone (CT)",19th-century civic theater still used for performances.,Old velvet seats remember every applause and heartbreak.,landmark;theater;heritage;culture,https://www.comune.caltagirone.ct.it/it/luoghi/teatro-politeama,3,
capodorlando_centro_torre_saracena_01,Caltanissetta,Balate,landmark,Villa Amedeo (Parco comunale),37.4931,14.0546,"Viale Luigi Monaco 6, 93100 Caltanissetta (CL)",Public garden and villa used for summer events.,"Shade, laughter, and tired dogs under marble busts.",park;garden;historic;local-life,https://www.comune.caltanissetta.it/it/luoghi/villa-amedeo,3,
capodorlando_piscittina_parco_urbano_01,Capo d’Orlando,Scafa Bassa,neighborhood,Borgo Scafa Bassa,38.1401,14.7203,"Contrada Scafa, 98071 Capo d’Orlando (ME)",Quiet residential zone with small B&Bs and local bakeries.,The smell of bread and salt greets you before the sea does.,neighborhood;local-life;residential,https://www.comune.capodorlando.me.it/,1,
capodorlando_sangregorio_bar_onda_01,Caronia,Centro Storico,landmark,Municipio di Caronia,38.0174,14.4675,"Piazza Roma 2, 98072 Caronia (ME)",Small town hall on the main square of the medieval village.,Whitewashed walls and a clock that’s almost on time.,landmark;municipal;historic,https://www.comune.caronia.me.it/,1,
capodorlando_sangregorio_porto_turistico_01,Castelbuono,Centro Storico,church,Chiesa Matrice Vecchia,37.9333,14.0896,"Via Sant'Anna, 90013 Castelbuono (PA)",13th-century church with Norman-Gothic elements.,The stones whisper Latin while tourists whisper awe.,church;gothic;heritage;norman,https://www.comune.castelbuono.pa.it/,4,
capodorlando_sangregorio_spiaggia_01,Castelbuono,San Guglielmo,landmark,Fontana di San Guglielmo,37.9283,14.0907,"Contrada San Guglielmo, 90013 Castelbuono (PA)",Medieval fountain linked to the town’s patron saint.,"Cold water, moss, and the superstition that it heals regret.",landmark;historic;folk;heritage,https://www.comune.castelbuono.pa.it/,2,
capodorlando_sangregorio_trattoria_da_toto_01,Caltagirone,Centro Storico,museum,Museo Diocesano,37.23919,14.51449,"Piazza Municipio 5, 95041 Caltagirone (CT)",Museum of sacred art attached to the cathedral.,"Velvet, icons, and the quiet pride of centuries of faith.",museum;religious;art;heritage,https://www.diocesicatania.it/cultura/museo-diocesano-caltagirone/,3,
capodorlando_scafabassa_borgo_01,Butera,Centro Storico,church,Chiesa Madre San Tommaso Apostolo,37.1909,14.1231,"Piazza Duomo, 93011 Butera CL, Italy",Main church of Butera with baroque façade and marble interiors.,"Candles flicker, pigeons circle, and faith smells faintly of wax.",butera;church;baroque;heritage;art,https://www.enjoysicilia.it/en/agrigento-area/butera/church-madre-san-tommaso-apostolo/,3,
capodorlando_testadimonaco_beach_01,Butera,Centro Storico,church,Santuario della Madonna delle Grazie,37.1905,14.1217,"Via Duca D’Aosta 2, 93011 Butera CL, Italy",Small sanctuary on the hillside with panoramic views.,The wind carries the Ave Maria down to the valley.,butera;church;heritage;view;spiritual,https://www.enjoysicilia.it/en/agrigento-area/butera/santuario-madonna-delle-grazie/,3,
caronia_centro_storico_chiesa_san_nicolò_01,Bronte,Centro Storico,church,Chiesa del Rosario,37.78674,14.83089,"Via Rosario, 95034 Bronte (CT)",18th-century church with simple lava-stone façade and quiet courtyard.,Candles flicker like pistachio shells in the dark.,church;heritage;architecture;quiet,https://www.enjoysicilia.it/en/catania-etna-area/bronte/church-of-rosario/,3,
caronia_centro_storico_municipio_01,Bronte,Capizzi Vecchia,oddity,Real Collegio Capizzi Courtyard Sundial,37.786936,14.833131,"Corso Umberto 277, 95034 Bronte (CT)",Historic courtyard details and period instruments within the college complex.,A thin shadow marches across stone while the town keeps ordinary time.,oddity;heritage;courtyard,https://www.enjoysicilia.it/en/catania-etna-area/bronte/real-collegio-capizzi-bronte/,2,
caronia_centro_storico_trattoria_caronia_01,Alicudi,Contrada Sgurbio,village,Contrada Sgurbio,38.5472,14.352,"Contrada Sgurbio, 98050 Alicudi ME, Italy",Tiny cluster of stone houses reached by steep paths.,"Time wheezes here, but refuses to die.",alicudi;village;authentic;historic;isolation,https://www.eolie.travel/isole-eolie/alicudi/,3,
caronia_marina_porticciolo_01,Alicudi,Montagna,hike,Sentiero per Montagna,38.55,14.355,"Montagna, 98050 Alicudi ME, Italy",Mule path leading up to Montagna peak (675 m) with views over Filicudi.,"Silence, wind, thyme, and a heartbeat that finally earns its place.",alicudi;trail;mountain;view;hiking,https://www.eolie.travel/isole-eolie/alicudi/,4,
caronia_marina_spiaggia_01,Caltagirone,Centro Storico,shop,Ceramiche Artistiche Di Martino,,,"Via Roma 88/90, 95041 Caltagirone (CT)",Family ceramic studio and showroom on Via Roma.,"Kiln heat, glaze fumes, and proud voices at the counter.",shop;ceramics;artisan;family-run,https://www.facebook.com/ceramichedimartino/;https://www.tripadvisor.it/Attraction_Review-g777678-d8368430,4,
caronia_nebrodi_ingresso_01,Caltagirone,Centro Storico,shop,Ceramiche Alessi,,,"Via Principe Amedeo 9, 95041 Caltagirone (CT)",Historic workshop and shop near the staircase.,"Hands black with clay, window bright with majolica crowns.",shop;ceramics;artisan,https://www.facebook.com/people/Ceramiche-Alessi/100063573697925/;https://www.comune.caltagirone.ct.it/it/luoghi/ceramiche-alessi,4,
caronia_nebrodi_laghetto_mazzese_01,Caltagirone,Centro Storico,shop,Sofia – Ceramiche di Caltagirone (Showroom),,,"Via Principe Amedeo 13, 95041 Caltagirone (CT)",Contemporary majolica pieces in a compact showroom near the steps.,"Fresh glazes, clean lines, stubborn tradition.",shop;ceramics;contemporary,https://www.facebook.com/sofiaceramichecaltagirone/;https://www.comune.caltagirone.ct.it/it/luoghi/sofia,3,
caronia_nebrodi_rifugio_forestale_01,Castelbuono,Centro Storico,shop,Pasticceria Fiasconaro,37.9333,14.0893,"Piazza Margherita 16, 90013 Castelbuono (PA)",Famous pastry shop known for panettone and Sicilian sweets.,"Sugar, pistachio, and the national anthem of calories.",shop;pastry;artisan;local,https://www.fiasconaro.com/,3,
caronia_superiore_belvedere_01,Butera,Desusino,tower,Torre del Salto di Falcone,37.144,14.1875,"SP31 near Contrada Desusino, 93011 Butera CL, Italy",16th-century coastal watchtower near Desusino beach.,Limestone blocks stare at the horizon with weary vigilance.,butera;tower;heritage;coast;history,https://www.itinari.com/coastal-towers-of-sicily-southeast-coast-2mt6,3,
caronia_superiore_castello_normanno_01,Castelbuono,Castello dei Ventimiglia,museum,Museo Civico di Castelbuono,37.9332,14.092,"Piazza Castello, 90013 Castelbuono (PA)","Local art, history, and sacred silverwork from the Madonie area.","Faith, folklore, and impeccable curation — Sicilian style.",museum;art;heritage,https://www.museocivico.eu/,3,
castelbuono_castello_museocivico_01,Bronte,Maniace,castle,Castello Nelson (Abbazia di S. Maria di Maniace),37.858753,14.818415,"Corso Giorgio Maniace, 95030 Maniace (CT)","Former Benedictine abbey turned manor known as Nelson’s Castle, gardens and small museum.","Lava-stone walls, English roses, and Etna watching like an old neighbor.",castle;abbey;heritage;garden;etna,https://www.outdooractive.com/en/poi/province-of-catania/castello-dei-nelson/807788580/,5,
castelbuono_castello_ventimiglia_01,Caronia,Parco dei Nebrodi (north sector),nature,Laghetto Mazzese,38.0463,14.4671,"Parco dei Nebrodi, Caronia (ME)",Small high-altitude lake surrounded by oaks and beech forest.,"Still water, mirrored clouds, and a chill older than memory.",nature;lake;hiking;wildlife,https://www.parcodeinebrodi.it/,3,
castelbuono_centrostorico_bar_santanna_01,Caronia,Parco dei Nebrodi (north sector),landmark,Rifugio Forestale Mazzese,38.0457,14.4658,"Località Mazzese, Caronia (ME)",Mountain hut managed by the forest service for hikers.,Woodsmoke and coffee at the edge of nowhere.,landmark;refuge;mountain;forest,https://www.parcodeinebrodi.it/,2,
castelbuono_centrostorico_fiasconaro_01,Avola,Gallina,nature,Accesso Sud Riserva Cassibile,36.8878,15.161,"Contrada Gallina, 96012 Avola SR, Italy",Southern entry point to the Cavagrande nature reserve.,"Olive trees, cicadas, and a path that always goes down first.",avola;nature;trail;reserve;authentic,https://www.parks.it/riserva.cavagrande.cassibile/,4,
castelbuono_centrostorico_matricevecchia_01,Capo d’Orlando,San Gregorio,harbor,Porto Turistico di Capo d’Orlando Marina,38.1387,14.7236,"Contrada Bagnoli, 98071 Capo d’Orlando (ME)","Modern marina with shops, restaurants and yacht berths.","White decks, diesel perfume, and laughter echoing off hulls.",harbor;marina;boats;dining,https://www.portodicapodorlando.it/,3,
castelbuono_centrostorico_piazzamargherita_01,Bronte,Capizzi Vecchia,museum,Real Collegio Capizzi (Bourbon-era Library),37.786937,14.833131,"Corso Umberto 277–279, 95034 Bronte (CT)",18th-century college with a historic library open to visitors.,"Leather spines, dust motes, and a librarian who knows every ghost by name.",museum;library;baroque;heritage,https://www.prolocobronte.it/portale/real-collegio-capizzi-library/,4,
castelbuono_contradaliccia_agriturismo_01,Bronte,Capizzi Vecchia,church,Chiesa/Santuario Maria SS. Annunziata,37.78527,14.82876,"Piazza Antonio Gagini, 95034 Bronte (CT)",Main sanctuary of Bronte with artworks and a broad forecourt.,"Bronze doors, ringing bells, and pistachio-green scarves in the wind.",church;heritage;art,https://www.prolocobronte.it/portale/sanctuary-of-the-madonna-annunciate/,3,
castelbuono_pianosempria_belvedere_01,Caltagirone,Centro Storico,landmark,Ponte di San Francesco,,,"Via Roma / Via Principe Umberto, 95041 Caltagirone (CT)",Historic bridge linking quarters of the old town.,"Stone and arches, smoke from a brazier drifting underneath.",landmark;bridge;historic,https://www.siciliafan.it/cosa-vedere/ponte-san-francesco-caltagirone/;https://www.tripadvisor.it/Attraction_Review-g777678-d3832812,3,
castelbuono_pianosempria_parco_madonie_01,Bronte,Maniace,museum,Abbey Museum at Castello Nelson,37.858611,14.818333,"Corso Giorgio Maniace, 95030 Maniace (CT)",Rooms with artifacts from the abbey and the Nelson estate.,"Polished vitrines, yellowed papers, the smell of wax and history.",museum;abbey;heritage,https://www.sigmwr.com/uploads/2086/Bronte_brochure.pdf,3,
castelbuono_sanguglielmo_fontana_01,Caltanissetta,Sant’Anna,education,Scuola di Medicina e Chirurgia,37.4929,14.0579,"Via Luigi Monaco 5, 93100 Caltanissetta (CL)",University branch for medical students in Sicily.,"Stethoscopes, vending machines, and half-serious Latin.",education;university;modern,https://www.unipa.it/scuole/medicinaecaltanissetta/,2,
castelbuono_sanguglielmo_santuario_01,Avola,Pantanello,seafront,Lungomare Pantanello,36.9044,15.1318,"Lungomare Pantanello, 96012 Avola SR, Italy",Seaside promenade connecting the marina to the beach area.,"Strollers, bicycles, and the scent of frying calamari.",avola;seafront;promenade;sunset;local-life,https://www.visitsicily.info/avola/,3,
castellammare_centrostorico_piazza_petrolo,Castellammare del Golfo,Centro Storico,viewpoint,Piazza Petrolo,38.0285,12.8812,"Piazza Petrolo, 91014 Castellammare del Golfo TP, Italy",Clifftop square with classic postcard views over the harbor.,“Fish scales glitter below; church bells keep the sea on time.”,castellammare;viewpoint;historic;seafront,"https://www.google.com/maps?q=38.0285,12.8812",2,
castellammare_marina_via_zangara,Castellammare del Golfo,Cala Marina,marina,Porto di Castellammare / Via Don Leonardo Zangara,38.0277,12.883,"Via Don Leonardo Zangara, 91014 Castellammare del Golfo TP, Italy","Seafront promenade lined with boats, bars, and evening passeggiata.",“Moorings clink; glasses clink louder.”,castellammare;marina;nightlife;bars,"https://www.google.com/maps?q=38.0277,12.8830",2,
castellammare_belvedere_golfo,Castellammare del Golfo,SS187,viewpoint,Belvedere del Golfo,38.0389,12.8749,"Belvedere SS187, 91014 Castellammare del Golfo TP, Italy",Panoramic overlook of the entire bay.,“Wind combs the palms; the coastline curls like smoke.”,castellammare;view;photo;drive,"https://www.google.com/maps?q=38.0389,12.8749",2,
castellammare_playa_beach,Castellammare del Golfo,Playa,beach,Spiaggia Playa,38.0199,12.9002,"Viale Leonardo da Vinci, 91014 Castellammare del Golfo TP, Italy",Long sandy city beach with shallow water and lidos.,“Umbrellas bloom; gelato forgives everything.”,castellammare;beach;family;swimming,"https://www.google.com/maps?q=38.0199,12.9002",2,
castellammare_guidaloca_beach,Castellammare del Golfo,Guidaloca,beach,Spiaggia di Guidaloca,38.0566,12.8401,"SP63, 91014 Castellammare del Golfo TP, Italy",Pebble crescent between cliffs with clear turquoise water.,“Children dive; parents shout; everyone forgives by noon.”,castellammare;beach;swimming;family,"https://www.google.com/maps?q=38.0566,12.8401",3,
castellammare_scopello_baglio,Castellammare del Golfo,Scopello,square,Baglio di Scopello,38.0737,12.7968,"Baglio di Scopello, 91014 Scopello TP, Italy",Stone courtyard village with trattorie and craft shops.,“Stone and rosemary; dinner takes the same time as sunset.”,castellammare;scopello;village;dining;heritage,"https://www.google.com/maps?q=38.0737,12.7968",2,
castellammare_zingaro_ingresso_sud,Castellammare del Golfo,Scopello,park,Riserva dello Zingaro – South Entrance,38.0739,12.8126,"Ingresso Sud, Contrada Scopello, 91014 TP, Italy",Trailheads to coves and Mediterranean scrub in Sicily’s first coastal reserve.,“Goat bells on the wind; every path smells of thyme.”,castellammare;zingaro;hiking;nature;swim,"https://www.google.com/maps?q=38.0739,12.8126",3,
castellammare_fraginesi_countryside,Castellammare del Golfo,Fraginesi,area,Contrada Fraginesi,38.042,12.844,"Contrada Fraginesi, 91014 Castellammare del Golfo TP, Italy","Rural valley of olive groves, villas, and quiet lanes west of town.",“Cicadas count the heat; church bells keep the calendar.”,castellammare;countryside;olive;quiet,"https://www.google.com/maps?q=38.0420,12.8440",1,
castellammare_spiaggia_playa,Castellammare del Golfo,Playa,beach,Spiaggia Playa (Lungomare),38.02318,12.89244,Lungomare Leonardo da Vinci, Long sandy city beach stretching east.,Umbrellas bloom; the sea hums like a fan.,beach;family;swim,https://it.wikipedia.org/wiki/Castellammare_del_Golfo#Spiagge,2,
scopello_torre_bennistra,Scopello,Scopello,tower,Torre Bennistra,38.07369,12.80303,Sentiero Torre Bennistra (trail access),Watchtower above Scopello with gulf panorama.,Wind peels stories off the tower’s skin.,tower;view;hike,https://it.wikipedia.org/wiki/Torre_Bennistra,3,
guidaloca_beach,Castellammare del Golfo,Guidaloca,beach,Spiaggia di Guidaloca,38.05661,12.84009,SP63 (Parcheggio Guidaloca),Pebble crescent with turquoise water.,Children leap; parents forgive everything by noon.,beach;family;swim,https://it.wikipedia.org/wiki/Spiaggia_di_Guidaloca,2,
cala_mazzo_sciacca,Scopello,Scopello,beach,Cala Mazzo di Sciacca,38.06476,12.80774,Contrada Mazzo di Sciacca (access),Sheltered cove between Scopello and Zingaro.,Sea like glass; cicadas like applause.,beach;cove;snorkel,https://www.visitcastellammare.it/cosa-vedere/cala-mazzo-di-sciacca,3,
zingaro_cala_tonnarella_uzzo,San Vito Lo Capo,Zingaro Reserve,beach,Cala Tonnarella dell’Uzzo,38.11918,12.81917,Sentiero Zingaro (footpath only),Famous pocket beach of the reserve.,No umbrellas; only shadow and sea.,beach;reserve;iconic,https://www.lemonde.fr/en/summer-reads/article/2024/08/15/zingaro-a-coastal-sicilian-paradise_6716189_183.html,5,
zingaro_grotta_uzzo,San Vito Lo Capo,Zingaro Reserve,archaeology,Grotta dell’Uzzo,38.12074,12.81663,Sentiero Zingaro (footpath only),Prehistoric cave with finds from Mesolithic era.,Crickets outside; deep time inside.,archaeology;cave;reserve,https://it.wikipedia.org/wiki/Grotta_dell%27Uzzo,4,
castellammare_lungomare_playa,Castellammare del Golfo,Playa,promenade,Lungomare L. da Vinci,38.02186,12.89493,Lungomare Leonardo da Vinci,Evening passeggiata by the long beach.,Engines purr; gelato melts strategically.,promenade;local-life,https://www.visitcastellammare.it/cosa-vedere/spiagge,1,
castellammare_fontana_madonna,Castellammare del Golfo,Centro Storico,monument,Fontana della Madonna,38.0281,12.88267,Piazza Madrice,Small 18th-century fountain near the Mother Church.,A trickle that tastes of centuries.,monument;baroque,https://www.siciliainfesta.com/da-vedere/fontana-madonna-castellammare-del-golfo.htm,1,
castellammare_torre_di_san_vito,Castellammare del Golfo,Litorale,tower,Torre di San Vito (ruins),38.04072,12.86083,SP63 litoranea (coastal trail),Coastal watchtower ruins west of town.,Only wind keeps the shift.,tower;coast;history,https://it.wikipedia.org/wiki/Torri_costiere_della_Sicilia#Provincia_di_Trapani,2,
terme_segestane,Castellammare del Golfo,Ponte Bagni,spa,Terme Segestane,37.99993,12.90572,Contrada Ponte Bagni, Natural hot springs & baths near the Fiume Caldo.,Sulfur steam and old cures in new swimsuits.,thermal;spa;nature,https://it.wikipedia.org/wiki/Terme_Segestane,3,
castellammare_madrice_piazza,Castellammare del Golfo,Centro Storico,square,Piazza Madrice,38.02828,12.88226,Piazza Madrice,Main square by the Mother Church.,Sundays sound like bells and pastries.,square;local-life,https://it.wikipedia.org/wiki/Castellammare_del_Golfo#Monumenti,1,
catania_terme_achilliane_01,Catania,Centro Storico,archaeology,Terme Achilliane,37.5031,15.0877,Under Cattedrale di Sant’Agata (Piazza Duomo),Roman baths beneath the cathedral.,Hot water stories hidden under holy feet.,catania;roman;baths;underground,https://en.wikipedia.org/wiki/Terme_Achilliane,3,
catania_giardino_bellini_01,Catania,Via Etnea,park,Giardino Bellini (Villa Bellini),37.5108,15.0864,Via Etnea 398 (entrances),City’s historic public gardens.,Green terraces count the hours with flowers.,catania;park;garden;view,https://en.wikipedia.org/wiki/Giardino_Bellini,2,
catania_pescheria_01,Catania,Centro Storico,market,La Pescheria (Fish Market),37.5036,15.0883,Piazza Alonzo di Benedetto / Via Pardo,Open-air fish market by the Duomo.,Ice melts fast; bargaining is faster.,catania;market;fish;streetfood,https://en.wikipedia.org/wiki/Catania#Markets,4,
catania_museo_sbarco_01,Catania,Stazione,museum,Museo dello Sbarco in Sicilia 1943,37.5086,15.1005,Viale Africa 12 (Le Ciminiere),Museum on the 1943 Sicily landings.,Siren lights blink in remembered rain.,catania;museum;WWII,https://en.wikipedia.org/wiki/Catania#Museums,3,
catania_playa_01,Catania,Playa,beach,La Playa di Catania,37.459,15.086,Viale Kennedy (long beachfront),Long sandy strand south of town.,Umbrellas bloom; planes draw lines in the sky.,catania;beach;sand;summer,https://en.wikipedia.org/wiki/Catania#Beaches,2,
catania_porta_uzeda_01,Catania,Centro Storico,gate,Porta Uzeda,37.5031,15.0882,Piazza Duomo (south side),Gateway linking Duomo to the port quarter.,A courteous bow between city and sea.,catania;gate;baroque,https://en.wikipedia.org/wiki/Porta_Uzeda,2,
catania_museo_civico_biscari_01,Catania,La Civita,collection,Collezioni Biscari (historical note),37.5039,15.0905,Via Museo Biscari 10,Historic private collections linked to the palace.,A memory palace within a palace.,catania;history;collection,https://en.wikipedia.org/wiki/Palazzo_Biscari,1,
catania_museo_cinema_01,Catania,Le Ciminiere,museum,Museo del Cinema,37.5082,15.1001,Viale Africa 12 95129 Catania,Film museum with vintage projectors and posters.,Flickering light remembers everyone.,catania;museum;cinema,https://en.wikipedia.org/wiki/Le_Ciminiere,2,
catania_mercati_generali_artlab_01,Catania,Zia Lisa,artspace,Scenario Pubblico / Compagnia Zappalà Danza,37.5057,15.0914,Via Teatro Massimo 16 95131 Catania,Contemporary dance and art venue in old warehouse.,Bodies speak clearer than words here.,catania;art;dance;venue,https://www.scenariopubblico.com/,2,
catania_pupi_museum_01,Catania,Centro Storico,museum,Museo dei Pupi Fratelli Napoli,37.5041,15.0873,Via Reitano 55 95121 Catania,Museum of Sicilian puppetry founded 1921.,Knights never retire here.,catania;folk;puppets;heritage,https://en.wikipedia.org/wiki/Opera_dei_Pupi,3,
catania_via_garibaldi_fountain_01,Catania,Centro Storico,monument,Fontana di Proserpina,37.5062,15.0955,Piazza Giovanni XXIII 95131 Catania,Neptune and nymphs among station traffic.,Myth meets modern horn symphony.,catania;fountain;myth;heritage,https://en.wikipedia.org/wiki/Fontana_della_Proserpina_(Catania),2,
catania_chiesa_san_francesco_01,Catania,Centro Storico,church,Chiesa di San Francesco d’Assisi all’Immacolata,37.5024,15.0862,Piazza San Francesco d’Assisi 95121 Catania,Baroque church with twin bell towers.,Pigeons treat it like a throne.,catania;church;baroque;heritage,https://en.wikipedia.org/wiki/Chiesa_di_San_Francesco_d%27Assisi_all%27Immacolata_(Catania),2,
catania_forte_ursino_bastione_01,Catania,Porto,fort,Forte Ursino Bastione,37.4948,15.0932,Via Cardinale Duchesne 95121 Catania,Remnants of Catania’s coastal defences.,Cannon holes now frame sunsets.,catania;fort;heritage;sea-view,https://it.wikipedia.org/wiki/Forte_Ursino,2,
,,,,,,,,,,,,,
,,,,,,,,,,,,,
,,,,,,,,,,,,,
catania_trecastagni_santuario_01,Catania,Trecastagni,church,Santuario dei Santi Alfio Filadelfo e Cirrino,37.6151,15.0738,Piazza Marconi 95039 Trecastagni CT,Main pilgrimage church of Etna’s slopes.,Faith and lava share the same resilience.,catania;church;heritage;etna,https://it.wikipedia.org/wiki/Trecastagni,3,
catania_trecastagni_vineyard_01,Catania,Trecastagni,winery,Terre Nere Vineyards,37.6378,15.0423,Contrada Calderara 95039 Trecastagni CT,Etna DOC estate producing volcanic wines.,Ash becomes elegance in a glass.,catania;wine;etna;vineyard,https://tenutaterrenere.it,4,
catania_acitrezza_cyclops_rocks_01,Catania,Aci Trezza,nature,Isole dei Ciclopi,37.5615,15.1622,Offshore Aci Trezza CT,Basalt sea stacks from Homer’s Odyssey.,Stone Giants still guard their myth.,catania;myth;nature;heritage,https://en.wikipedia.org/wiki/Aci_Trezza,4,
catania_orto_botanico_01,Catania,Via Etnea,garden,Orto Botanico dell’Università di Catania,37.5255,15.0851,Via Etnea 397 95125 Catania,Botanical garden from 1858 with tropical palms and succulents.,Plants practice patience professionally.,catania;garden;university;heritage,https://en.wikipedia.org/wiki/Orto_Botanico_dell%27Universit%C3%A0_di_Catania,3,
catania_unict_science_campus_01,Catania,San Giovanni Galermo,science,Università di Catania – Cittadella Universitaria,37.5201,15.0757,Viale Andrea Doria 6 95125 Catania,Main science and engineering campus with observatory.,Ideas percolate like lava beneath the floor tiles.,catania;science;university,https://www.unict.it,1,
catania_parco_etnaland_01,Catania,Belpasso,park,Etnaland Theme & Water Park,37.4874,14.9395,Contrada Agnelleria 95032 Belpasso CT,Huge water and theme park at Etna’s foot.,Screams echo pleasantly off lava walls.,catania;family;park;fun,https://en.wikipedia.org/wiki/Etnaland,2,
catania_belpasso_church_01,Catania,Belpasso,church,Chiesa Madre Maria Santissima del Carmelo,37.5621,14.9788,Piazza Duomo 1 95032 Belpasso CT,Central baroque church rebuilt after 1669 lava flow.,Faith learns to build again.,catania;church;etna;heritage,https://it.wikipedia.org/wiki/Belpasso,2,
catania_parco_simeto_01,Catania,Plain of Catania,nature,Parco Fluviale del Simeto,37.4356,14.9879,Contrada San Demetrio CT,Nature reserve protecting river and wetlands.,Birds prefer this airport-free zone.,catania;nature;park;river,https://it.wikipedia.org/wiki/Fiume_Simeto,2,
catania_aeroporto_fontanarossa_oddity_01,Catania,Fontanarossa,oddity,Art Installation “Testa di Elefante”,37.4669,15.0665,Aeroporto Fontanarossa Arrivals Hall,Lava-stone sculpture greeting arrivals.,First elephant you meet is stone cold sober.,catania;airport;art;symbol,https://www.aeroporto.catania.it,1,
catania_daytrip_siracusa_train_01,Catania,Stazione,transport,Treno Regionale per Siracusa,37.5063,15.0952,Stazione Centrale Catania CT,Regional train link along Ionian coast.,Windows play movie of blue and olive.,catania;transport;daytrip;siracusa,https://www.trenitalia.com,1,
catania_daytrip_taormina_bus_01,Catania,Stazione Bus,transport,Interbus to Taormina,37.507,15.0978,Piazza Giovanni XXIII Catania,Frequent bus to Taormina and Giardini Naxos.,Coastline as the commute you don’t mind.,catania;transport;daytrip;taormina,https://www.interbus.it,1,
castellammare_castello_arabo_normanno,Castellammare del Golfo,Centro Storico,castle,Castello Arabo-Normanno,38.0289,12.8783,"Piazza Castello, 91014 Castellammare del Golfo TP, Italy",Seaside fortress and small museum on the rocky headland.,"“Salt wind in the battlements, and centuries learning to whisper.”",castellammare;castle;heritage;museum;sea,"https://www.google.com/maps?q=38.0289,12.8783",3,
castellammare_chiesa_madre,Castellammare del Golfo,Centro Storico,church,Chiesa Madre (Maria SS. del Soccorso),38.0289,12.8817,"Corso Bernardo Mattarella, 91014 Castellammare del Golfo TP, Italy",Baroque parish church anchoring the old town.,"“A cool nave, a bright piazza, and hymns drifting toward the harbor.”",castellammare;church;baroque;heritage,"https://www.google.com/maps?q=38.0289,12.8817",2,
castellammare_cala_marina_promenade,Castellammare del Golfo,Cala Marina,walk,Cala Marina Promenade,38.0289,12.8833,"Cala Marina (lungomare), 91014 Castellammare del Golfo TP, Italy",Waterside walk between the harbor and the castle.,"“Diesel, salt, and stories sewn back into nets.”",castellammare;seafront;walk;local-life,"https://www.google.com/maps?q=38.0289,12.8833",1,
castellammare_scopello_tonnara,Castellammare del Golfo,Scopello,heritage,Tonnara di Scopello,38.0721,12.8002,"Piazza Tonnara, 91014 Scopello TP, Italy",Historic tuna fishery and cove with dramatic faraglioni.,"“Sea glass, rusted anchors, and water the color of old postcards.”",castellammare;scopello;heritage;cove;swim,"https://www.google.com/maps?q=38.0721,12.8002",3,
castellammare_castello_arabo_normanno,Castellammare del Golfo,Centro Storico,castle,Castello Arabo-Normanno,38.02875,12.87892,Largo Castello s.n. 91014 Castellammare del Golfo,Arab-Norman coastal fortress guarding the old harbor.,Sea walls breathe spray; stone remembers every siren.,castle;harbor;heritage,https://www.comune.castellammaredelgolfo.tp.it/it/page/castello-arabo-normanno,4,
castellammare_cala_petrolo,Castellammare del Golfo,Centro Storico,beach,Cala Petrolo,38.02808,12.88092,Via Don Leonardo Zangara (access),Pocket beach below town beside the promenade.,"Sand, gossip, and church bells keeping time.",beach;urban;sunset,https://en.wikipedia.org/wiki/Cala_Petrolo,2,
castellammare_porto_turistico,Castellammare del Golfo,Porto,marina,Porto/Marina di Castellammare,38.02693,12.88192,Banchina Porta Mare 91014 Castellammare del Golfo,Fishing harbor and marina with boat trips to Zingaro.,Ropes creak; espresso cups rattle on the pier.,harbor;boats;local-life,https://www.portoturisticocastellammare.it/,2,
castellammare_cala_marina,Castellammare del Golfo,Centro Storico,promenade,Cala Marina Promenade,38.02773,12.87964,Via Cala Marina 91014 Castellammare del Golfo,Seafront stroll lined with bars and seafood trattorie.,"Lanterns, laughter, and plates that sing.",promenade;dining;nightlife,https://www.visitcastellammare.it/cosa-vedere/cala-marina,2,
castellammare_chiesa_madre,Castellammare del Golfo,Centro Storico,church,Chiesa Madre (Maria SS. del Soccorso),38.02841,12.88227,Piazza Madrice 91014 Castellammare del Golfo,18th-century Mother Church over the old town.,"Wax, stone, and organ notes floating to sea.",church;baroque;heritage,https://it.wikipedia.org/wiki/Chiesa_Madre_(Castellammare_del_Golfo),3,
castellammare_chiesa_rosario,Castellammare del Golfo,Centro Storico,church,Chiesa del Rosario,38.02893,12.88124,Via Rosario 3 91014 Castellammare del Golfo,Historic church near the marina with elegant façade.,"Shadow, cool tiles, and a pause from sun.",church;heritage,https://www.comune.castellammaredelgolfo.tp.it/it/page/chiesa-del-ss-rosario,2,
castellammare_museo_uzzaredru,Castellammare del Golfo,Centro Storico,museum,Museo del Mare “Uzzaredru”,38.02853,12.87999,Via Don L. Zangara 45 91014,Small sea-heritage museum inside the castle complex.,"Nets, knots, and names whispered by hulls.",museum;maritime;heritage,https://www.museouzzaredru.it/,3,
castellammare_piazza_petrolo,Castellammare del Golfo,Centro Storico,square,Piazza Petrolo,38.0285,12.88205,Piazza Petrolo 91014,Clifftop square above the cove with views and cafés.,Gelato spoons keep rhythm with waves.,square;view;local-life,https://www.visitcastellammare.it/cosa-vedere/piazza-petrolo,2,
castellammare_belvedere_panorama,Castellammare del Golfo,Panoramica Belvedere,viewpoint,Belvedere Panoramico,38.03266,12.87241,SP63 Belvedere (Belvedere East) 91014,Iconic lookout over the harbor.,"castle and gulf., The town looks poured into the bay like honey.",viewpoint;photo,https://www.visitcastellammare.it/cosa-vedere/belvedere,3,
scopello_tonnara,Scopello,Scopello,landmark,Tonnara di Scopello,38.07117,12.81103,Contrada Tonnara 91014 Scopello,Historic tuna-fishery with sea stacks and swimming platform.,"Rusty anchors, clear water, and time unhooked.",landmark;swim;heritage,https://www.tonnaradiscopello.it/en/,5,
scopello_baglio,Scopello,Scopello,village,Baglio di Scopello,38.07021,12.80679,Piazza Nettuno 91014 Scopello,Stone hamlet with courtyard.,"cafés and ceramics., Courtyard chatter thick as jasmine.",village;heritage;food,https://en.wikipedia.org/wiki/Scopello,2,
zingaro_ingresso_sud,San Vito Lo Capo,Zingaro Reserve,park,Ingresso Sud Riserva dello Zingaro,38.06963,12.80619,Contrada Scopello,Ingresso Sud,"Trailhead to Sicily’s first coastal nature reserve., Dusty paths, dwarf palms, and horizons.",park;hike;protected,https://www.regione.sicilia.it/la-zingaro,4,
zingaro_cala_capreria,San Vito Lo Capo,Zingaro Reserve,beach,Cala Capreria (Riserva dello Zingaro),38.09132,12.81252,Sentiero Zingaro (footpath only),Rocky cove with pure,"clear water near south entrance., Water so clear it edits your thoughts.",beach;reserve;snorkel,https://it.wikipedia.org/wiki/Riserva_naturale_dello_Zingaro,4,
zingaro_museo_naturalistico,San Vito Lo Capo,Zingaro Reserve,museum,Museo Naturalistico della Zingaro,38.10561,12.81765,Centro Visitatori,Ingresso Sud,"Small nature museum on flora/fauna of the reserve., Shells, seeds, and maps of patience.",museum;reserve;nature,https://www.regione.sicilia.it/la-zingaro,2,
castellammare_mercato_ittico,Castellammare del Golfo,Porto,market,Mercato Ittico (Fish Market),38.02572,12.8834,Banchina Molo,Dawn fish auction beside the boats.,"Shouts, scales, and silver flashes.",market;fish;authentic,https://www.visitcastellammare.it/cosa-fare/pesca-e-mercato-ittico,3,
castellammare_cala_petrolo_scogliera,Castellammare del Golfo,Centro Storico,viewpoint,Scogliera di Cala Petrolo,38.02767,12.88178,Via Cala Petrolo (access steps),Rock ledges for sunset sitting over the cove.,"Teens, guitars, and orange sky.",viewpoint;sunset,https://en.wikipedia.org/wiki/Cala_Petrolo,1,
castellammare_chiesa_annunziata,Castellammare del Golfo,Centro Storico,church,Chiesa dell’Annunziata,38.02743,12.88294,Piazza Plebiscito 91014,Historic church with simple stone façade.,Cool shadow for hot arguments.,church;heritage,https://it.wikipedia.org/wiki/Castellammare_del_Golfo#Monumenti,1,
castellammare_parco_suburbano,Castellammare del Golfo,Periferia,park,Parco Suburbano (Villa Comunale),38.03168,12.87369,SP63 Belvedere area,Green viewpoint park above the gulf.,"Benches, pines, and gossip in the breeze.",park;view,https://www.visitcastellammare.it/cosa-vedere/belvedere,1,
scopello_torre_doria,Scopello,Scopello,tower,Torre Doria (Torre di Scopello),38.07167,12.81206,Contrada Tonnara,Watchtower guarding the Tonnara entrance.,Stone sentry smelling of salt.,tower;heritage;coast,https://it.wikipedia.org/wiki/Scopello,2,
castellammare_cala_fossa,Castellammare del Golfo,Litorale,beach,Cala Fossa,38.05076,12.85522,SP63 coast (access path),Small cove west of town on the coastal road.,"Pebbles, snorkels, and time off the clock.",beach;cove;snorkel,https://www.visitcastellammare.it/cosa-vedere/spiagge,2,
catania_piazza_duomo_01,Catania,Centro Storico,square,Piazza del Duomo,37.5029,15.0873,Piazza del Duomo 95124 Catania,Main baroque square with cathedral.,"elephant fountain, and city hall., Stone and light hold court while the city circles around.",catania;square;baroque;heritage;center,https://en.wikipedia.org/wiki/Piazza_Duomo,3,
catania_cathedral_01,Catania,Centro Storico,church,Cattedrale di Sant’Agata,37.5032,15.0876,Piazza del Duomo 95124 Catania,Cathedral dedicated to Saint Agatha; heart of city’s feast.,Bells roll like waves; faith smells of wax and sea salt.,catania;church;cathedral;heritage,https://en.wikipedia.org/wiki/Catania_Cathedral,4,
catania_fontana_elefante_01,Catania,Centro Storico,monument,Fontana dell’Elefante,37.5029,15.0872,Piazza del Duomo 95124 Catania,Lava-stone elephant with Egyptian obelisk—city symbol.,A granite smile that outlives every argument.,catania;monument;symbol;baroque,https://en.wikipedia.org/wiki/Fontana_dell%27Elefante,3,
catania_fontana_amenano_01,Catania,Centro Storico,monument,Fontana dell’Amenano,37.5033,15.0879,Piazza del Duomo (side of La Pescheria) 95124,Marble fountain marking the hidden Amenano river.,Water lifts its sheet like a waiter revealing a trick.,catania;fountain;heritage,https://en.wikipedia.org/wiki/Amenano,2,
catania_palazzo_elefanti_01,Catania,Centro Storico,building,Palazzo degli Elefanti,37.5031,15.0875,Piazza del Duomo 95124,18th-century city hall facing the cathedral.,Paperwork and baroque share the same stage.,catania;palace;baroque;civic,https://en.wikipedia.org/wiki/Palazzo_degli_Elefanti,2,
catania_palazzo_biscari_01,Catania,Porto/La Civita,building,Palazzo Biscari,37.5039,15.0905,Via Museo Biscari 10 95131 Catania,Sicily’s most famous private baroque palace.,Stucco and mirrors practice their own opera.,catania;palace;baroque;visit,https://en.wikipedia.org/wiki/Palazzo_Biscari,4,
catania_via_crociferi_01,Catania,Centro Storico,street,Via Crociferi,37.5053,15.0891,Via dei Crociferi 95124 Catania,Unesco-listed baroque street of churches and arches.,A corridor of stone where silence wears lace.,catania;street;baroque;unesco,https://en.wikipedia.org/wiki/Via_dei_Crociferi,4,
catania_benedettini_01,Catania,Piazza Dante,monastery,Monastero dei Benedettini,37.5042,15.083,Piazza Dante 32 95124 Catania,Enormous Benedictine complex—now university site.,Cloisters keep the echo of the 1669 lava.,catania;monastery;heritage;university,https://en.wikipedia.org/wiki/Monastery_of_San_Nicol%C3%B2_l%27Arena,4,
catania_teatro_romano_01,Catania,Centro Storico,archaeology,Teatro Romano e Odeon,37.5044,15.0842,Via Vittorio Emanuele II 266 95124,Roman theatre with adjacent Odeon.,Stone benches warm the backs of time.,catania;roman;archaeology;theatre,https://en.wikipedia.org/wiki/Roman_theatre_of_Catania,4,
catania_anfiteatro_01,Catania,Piazza Stesicoro,archaeology,Anfiteatro Romano di Catania,37.5079,15.0879,Piazza Stesicoro 95124,Partially excavated Roman amphitheatre.,Traffic pauses—Rome clears its throat.,catania;roman;amphitheatre;heritage,https://en.wikipedia.org/wiki/Roman_Amphitheatre_of_Catania,4,
catania_badia_santagata_01,Catania,Centro Storico,church,Badia di Sant’Agata,37.5034,15.0877,Via Vittorio Emanuele II 182 95131,Baroque church with dome walkway and views.,Steps creak; the city rises like steam.,catania;church;baroque;view,https://en.wikipedia.org/wiki/Badia_di_Sant%27Agata,3,
catania_collegiata_01,Catania,Centro Storico,church,Basilica della Collegiata,37.505,15.0886,Via Etnea 23 95131,Ornate 18th-century basilica on Via Etnea.,Marble curls like frosting on a wedding cake.,catania;church;baroque,https://en.wikipedia.org/wiki/Basilica_della_Collegiata,2,
catania_san_benedetto_01,Catania,Centro Storico,church,Chiesa di San Benedetto,37.5051,15.0892,Via Crociferi 33 95124,Church with famous Scalinata dell’Angelo.,Angels climb stairs; you follow with your eyes.,catania;church;baroque,https://en.wikipedia.org/wiki/Church_of_San_Benedetto,3,
catania_teatro_bellini_01,Catania,Centro,opera,Teatro Massimo Bellini,37.5042,15.0897,Piazza Vincenzo Bellini 95131,Grand 19th-century opera house.,Red velvet teaches breath control.,catania;opera;theatre;heritage,https://en.wikipedia.org/wiki/Teatro_Massimo_Bellini,3,
catania_fera_o_luni_01,Catania,Borgo/Stesicoro,market,Fera ’o Luni (Piazza Carlo Alberto),37.5113,15.0889,Piazza Carlo Alberto 95131,Daily open-air market of clothes.,"produce, chaos., Prices sing; hands argue; deals happen.",catania;market;local-life,https://en.wikipedia.org/wiki/Catania#Markets,3,
catania_castello_ursino_01,Catania,Castello Ursino,castle,Castello Ursino,37.5015,15.0872,Piazza Federico di Svevia 95121,13th-century castle now housing civic museum.,Lava once lapped at these walls like surf.,catania;castle;museum;swabian,https://en.wikipedia.org/wiki/Castello_Ursino,4,
catania_museo_ursino_01,Catania,Castello Ursino,museum,Museo Civico di Castello Ursino,37.5015,15.0872,Piazza Federico di Svevia,City museum with archaeology & art.,"Shards, saints, and stubborn emperors.",catania;museum;art;archaeology,https://en.wikipedia.org/wiki/Castello_Ursino,3,
catania_ciminiere_01,Catania,Stazione,museum,Le Ciminiere,37.5083,15.1002,Viale Africa 12 95129,Ex-industrial exhibition center.,Chimneys keep watch over new stories.,catania;industrial;events;museum,https://en.wikipedia.org/wiki/Le_Ciminiere,2,
catania_sgiovanni_li_cuti_01,Catania,Picanello-Ognina,beach,San Giovanni Li Cuti,37.5317,15.1087,Via San Giovanni Li Cuti 95127,Little black-lava beach with fishing boats.,Waves tap basalt like a metronome.,catania;beach;lava;local,https://en.wikipedia.org/wiki/San_Giovanni_Li_Cuti,3,
catania_ognina_porto_01,Catania,Ognina,harbor,Porto di Ognina,37.528,15.1125,Piazza Ognina 95127,Old harbor favored by small craft.,Salt and diesel greet each other politely.,catania;harbor;local-life,https://en.wikipedia.org/wiki/Catania#Geography,2,
catania_porta_garibaldi_01,Catania,Fortino,gate,Porta Garibaldi,37.4987,15.0746,Piazza Palestro 95122,Lava-stone triumphal arch (1768).,A wedding cake baked from basalt.,catania;gate;baroque,https://en.wikipedia.org/wiki/Porta_Garibaldi_(Catania),2,
catania_villa_pacini_01,Catania,La Civita,park,Giardino/Villa Pacini,37.5039,15.0903,Via Pacini 95131,Shaded garden by the Amenano.,"Cards slap, pigeons strut, time exhales.",catania;park;local-life,https://en.wikipedia.org/wiki/Catania#Parks,1,
catania_terme_della_rotonda_01,Catania,Centro Storico,archaeology,Terme della Rotonda,37.5049,15.0824,Piazza della Rotonda 95124,Small Roman baths with later church.,Stone changes job but not memory.,catania;roman;baths;church,https://en.wikipedia.org/wiki/Terme_della_Rotonda,2,
catania_odeon_01,Catania,Centro Storico,archaeology,Odeon di Catania,37.5042,15.084,Via Teatro Greco 95124,Small Roman auditorium next to theatre.,Where echoes rehearse for night.,catania;roman;odeon,https://en.wikipedia.org/wiki/Roman_theatre_of_Catania,2,
catania_museo_diocesano_01,Catania,Centro Storico,museum,Museo Diocesano di Catania,37.5037,15.088,Piazza del Duomo 8 95124,Sacred art museum by the cathedral.,Silver glows like a second liturgy.,catania;museum;religious,https://en.wikipedia.org/wiki/Museo_Diocesano_(Catania),2,
catania_chiesa_scirocco_01,Catania,Centro Storico,church,Chiesa della Badia di Sant’Agata – Cupola Walk,37.5034,15.0877,Via Vittorio Emanuele II 182,Rooftop walkway with 360° city views.,Wind learns to sing in circles.,catania;view;rooftop;church,https://en.wikipedia.org/wiki/Badia_di_Sant%27Agata,3,
catania_chiosco_gallo_01,Catania,Via Etnea,kiosk,Chiosco Giammona (Gallo),37.5099,15.0866,Via Etnea corner Villa Bellini,Century-old kiosk serving seltz with lemon and salt.,"Catania in a glass: fizz, acid, and drama.",catania;kiosk;streetfood;heritage,https://goo.gl/maps/pSEpMxYNT6YfCvBc8,4,bad_source_url
catania_etna_guidehouse_01,Catania,Nicolosi,excursion,Etna Sud – Rifugio Sapienza,37.6996,15.0023,Rifugio Sapienza 95030 Nicolosi CT,Base station for Etna excursions and cable car.,Coffee tastes better above the clouds.,catania;etna;excursion;volcano,https://en.wikipedia.org/wiki/Mount_Etna,4,
catania_etna_funivia_01,Catania,Nicolosi,transport,Funivia dell’Etna,37.7019,15.0009,Rifugio Sapienza,Cableway entrance,"Main lift carrying visitors up the southern slope., The mountain sighs and lets you rise.",catania;etna;cablecar;tourism,https://funiviaetna.com,3,
catania_ogni_sabato_artmarket_01,Catania,Piazza Carlo Alberto,market,Artigiani Etnei Market,37.5113,15.0887,Piazza Carlo Alberto 95131 Catania,Weekend craft market of ceramics and cloth.,Stalls bloom like opinions in spring.,catania;market;artisan;local,https://goo.gl/maps/RTRRRsJ8BzSxDNkk8,2,bad_source_url
catania_parco_gioeni_01,Catania,Borgo-Sanzio,park,Parco Gioeni,37.5263,15.0787,Viale Odorico da Pordenone 95125 Catania,Large hill park overlooking the city.,"Shade, steps, and the hum of scooters far below.",catania;park;view;local-life,https://goo.gl/maps/qccLtLGejUeF9ZRP7,1,bad_source_url
catania_bottega_cioccolato_01,Catania,Centro Storico,shop,Cioccolato di Modica Boutique,37.5036,15.0884,Via Garibaldi 56 95121 Catania,Small shop selling traditional Modica chocolate.,"Rough texture, sweet afterthought.",catania;chocolate;artisan;local,https://goo.gl/maps/Wd53zZftH1JbYp8h9,2,bad_source_url
catania_paterno_castello_01,Catania,Paternò,castle,Castello Normanno di Paternò,37.5669,14.9002,Piazza della Rocca 95047 Paternò CT,11th-century Norman keep overlooking the Simeto Valley.,Wind still bows to its walls.,catania;castle;heritage;norman,https://en.wikipedia.org/wiki/Patern%C3%B2,3,
cefala_diana_bagno_arabo_01,Cefalà Diana,Bagno Arabo,spa,Bagni Termali Arabi di Cefalà Diana,37.9129,13.5007,SP77 90030 Cefalà Diana PA,Medieval Arab bathhouse with domed roofs and hot spring water.,Steam curls around Byzantine arches — centuries exhaling.,cefala_diana;spa;arab;heritage;thermal,https://en.wikipedia.org/wiki/Cefal%C3%A0_Diana,4,
cefala_diana_castello_01,Cefalà Diana,Centro Storico,castle,Castello di Cefalà Diana,37.9087,13.5097,Via Castello 90030 Cefalà Diana PA,Norman castle ruin overlooking the valley.,Stone keeps its dignity better than most empires.,cefala_diana;castle;norman;heritage;view,https://sicilianplaces.com/blog/detail/norman-castles-of-sicily,3,
cefala_diana_chiesa_madre_01,Cefalà Diana,Centro Storico,church,Chiesa Madre di San Michele Arcangelo,37.9089,13.5059,Piazza Umberto I 90030 Cefalà Diana PA,Parish church rebuilt in 18th century with frescoed nave.,Faith smells faintly of limestone and candle wax.,cefala_diana;church;baroque;local;heritage,https://goo.gl/maps/5MK3WxzP2zRM4ytQ9,2,bad_source_url
cefala_diana_piazza_umberto_01,Cefalà Diana,Centro Storico,square,Piazza Umberto I,37.9091,13.5055,Piazza Umberto I 90030 Cefalà Diana PA,Main village square lined with cafés and the town hall.,The espresso machine doubles as social media.,cefala_diana;square;cafe;local-life;heritage,https://goo.gl/maps/mR8TLoxuMwA66VyQ6,1,bad_source_url
cefala_diana_agriturismo_01,Cefalà Diana,Contrada Sant’Elia,agriturismo,Agriturismo Sant’Elia,37.9112,13.5175,Contrada Sant’Elia 90030 Cefalà Diana PA Italy,Rural guesthouse offering olive oil tastings and local cuisine.,Dinner ends when the stars agree.,cefala_diana;agriturismo;food;olive;local,https://goo.gl/maps/Fy3vH3kz3RAxGV9Y9,3,bad_source_url
cefala_diana_fontana_vecchia_01,Cefalà Diana,Centro Storico,monument,Fontana Vecchia,37.9086,13.5052,Via Vittorio Emanuele 90030 Cefalà Diana PA Italy,Old stone fountain near the main square.,Locals claim the water forgives gossip.,cefala_diana;fountain;heritage;local-life,https://goo.gl/maps/6uJeRUXp6prJ68mF7,1,bad_source_url
cefala_diana_parco_campanile_01,Cefalà Diana,Outskirts,park,Parco del Campanile,37.9117,13.5119,Via Belvedere 90030 Cefalà Diana PA Italy,Public green area with view of the Palermo plain.,Perfect place for arguments that end in laughter.,cefala_diana;park;view;relax,https://goo.gl/maps/yrf1qjLDn5eSHmzX7,1,bad_source_url
cefala_diana_ristorante_termale_01,Cefalà Diana,Bagno Arabo,restaurant,Ristorante Bagni Termali,37.9127,13.5003,SP77 Bagni Arabi 90030 Cefalà Diana PA Italy,Restaurant beside the thermal site serving local trout and ricotta dishes.,Steam from the baths meets the smoke from the grill.,cefala_diana;restaurant;local;thermal;heritage,https://goo.gl/maps/K2C4eDxTqkvPZ89y8,3,bad_source_url
cefala_diana_olivepress_01,Cefalà Diana,Contrada Piano,workshop,Frantoio Piano di Diana,37.9104,13.5156,Contrada Piano 90030 Cefalà Diana PA,Small olive press producing extra virgin oil.,Machines hum like monks reciting recipes.,cefala_diana;olive;artisan;local,https://goo.gl/maps/jP4nqmvNMAGLGhEY8,2,bad_source_url
cefalu_duomo_01,Cefalù,Centro Storico,church,Duomo di Cefalù,38.0394,14.0212,Piazza del Duomo 90015 Cefalù PA Italy,12th-century Norman cathedral with golden mosaics.,Christ Pantocrator stares you into silence — it works.,cefalu;cathedral;norman;unesco;heritage,https://en.wikipedia.org/wiki/Cefal%C3%B9_Cathedral,4,
cefalu_rocca_01,Cefalù,La Rocca,nature,La Rocca di Cefalù,38.0422,14.0185,Trailhead Via Salita Saraceni 90015 Cefalù PA Italy,Steep limestone promontory above the town with fortress ruins.,Every step up adds a century to the view.,cefalu;hike;view;castle;nature,https://en.wikipedia.org/wiki/Cefal%C3%B9,3,
cefalu_porto_01,Cefalù,Porto Vecchio,harbor,Porto Vecchio,38.0399,14.0218,Lungomare Giuseppe Giardina 90015 Cefalù PA Italy,Old harbor with stone arches and fishing boats.,"Salt, diesel, and gossip share the same perfume.",cefalu;harbor;historic;local-life,https://goo.gl/maps/EvWPNsEMkTgbjP3t8,2,bad_source_url
cefalu_mandralisca_01,Cefalù,Centro Storico,museum,Museo Mandralisca,38.0397,14.0227,Via Mandralisca 13 90015 Cefalù PA Italy,Museum featuring portrait by Antonello da Messina and ancient artifacts.,Culture crammed lovingly into seaside humidity.,cefalu;museum;art;heritage,https://en.wikipedia.org/wiki/Museo_Mandralisca,3,
cefalu_lavatoio_01,Cefalù,Centro Storico,monument,Lavatoio Medievale,38.0398,14.0224,Via Vittorio Emanuele 90015 Cefalù PA Italy,Medieval washhouse carved into rock with flowing water.,Echoes of laundry and laughter still cling to the walls.,cefalu;heritage;water;historic,https://goo.gl/maps/nvoeHLAXqKXG4vxE8,2,bad_source_url
cefalu_molo_01,Cefalù,Porto Vecchio,viewpoint,Molo di Cefalù,38.0401,14.022,Vicolo Arbitro 90015 Cefalù PA,Stone pier with postcard view of town and Duomo.,The view that launched a thousand phone wallpapers.,cefalu;photo;view;harbor,https://goo.gl/maps/BY9zH2wLpVhvhA9R6,1,bad_source_url
cefalu_lungomare_01,Cefalù,Lungomare,beach,Spiaggia di Cefalù,38.0377,14.027,Lungomare Giuseppe Giardina 90015 Cefalù PA Italy,Wide sandy beach backed by cafés and umbrellas.,The Mediterranean at its most photogenic and least subtle.,cefalu;beach;urban;summer;swimming,https://goo.gl/maps/MbR9B9dvm4VUE9yL9,2,bad_source_url
cefalu_torre_saracena_01,Cefalù,Capo Marchiafava,monument,Torre Saracena,38.0384,14.0326,Via Capo Marchiafava 90015 Cefalù PA Italy,Watchtower built to spot Saracen raids; now spots selfies.,History keeps getting photobombed.,cefalu;tower;sea-view;heritage,https://goo.gl/maps/Z9Y7Twf2TYWbnkcF9,2,bad_source_url
cefalu_piazza_garibaldi_01,Cefalù,Centro Storico,square,Piazza Garibaldi,38.0385,14.0218,Piazza Garibaldi 90015 Cefalù PA Italy,Shady square near city gate with cafés and artisan shops.,Espresso is the local currency.,cefalu;square;cafe;local-life,https://goo.gl/maps/iq8QLMYn79bnKhmC8,1,bad_source_url
cefalu_gelateria_bastione_01,Cefalù,Centro Storico,cafe,GelAntico – Gelateria Bastione,38.04,14.0213,Via Carlo Ortolani di Bordonaro 90015 Cefalù PA Italy,Seafront gelato shop famous for pistachio and almond flavors.,"Cold sweetness, warm evening, perfect algebra.",cefalu;gelato;dessert;local,https://goo.gl/maps/6a4aFXDydGEXh2Lb7,1,bad_source_url
cefalu_trattoria_da_nino_01,Cefalù,Centro Storico,trattoria,Trattoria da Nino,38.0392,14.021,Via Vittorio Emanuele 55 90015 Cefalù PA Italy,Family trattoria serving sardines a beccafico and swordfish.,"Oil, lemon, and laughter compete for first place.",cefalu;restaurant;seafood;local,https://goo.gl/maps/r2QcwKcU6XzdLj3B9,2,bad_source_url
cefalu_enoteca_le_petit_01,Cefalù,Centro Storico,bar,Le Petit Tonneau Enoteca,38.0395,14.0217,Via Porpora 3 90015 Cefalù PA Italy,Small wine bar with Sicilian labels and jazz nights.,Conversation aged in oak.,cefalu;wine;bar;local-life,https://goo.gl/maps/UDhRMuPSAZzY7FeF7,2,bad_source_url
cefalu_bastione_di_capo_01,Cefalù,Capo Marchiafava,viewpoint,Bastione di Capo Marchiafava,38.0385,14.0332,Via Vittorio Emanuele 90015 Cefalù PA Italy,Stone bastion with panorama over the sea cliffs.,Where the city ends and calm begins.,cefalu;viewpoint;historic;photo,https://goo.gl/maps/RYBCHEG3BTSghqDb7,1,bad_source_url
cefalu_ceramiche_artigiane_01,Cefalù,Centro Storico,shop,Ceramiche d’Arte “Il Girasole”,38.0394,14.0219,Corso Ruggero 83 90015 Cefalù PA Italy,Colorful artisan ceramics workshop near the Duomo.,Each tile is a stubborn fragment of joy.,cefalu;shop;ceramics;artisan,https://goo.gl/maps/yy2q3BDezSeZoVYv7,2,bad_source_url
cefalu_osteria_bastione_01,Cefalù,Centro Storico,restaurant,Osteria Bastione & Costanza,38.0401,14.0212,Via Carlo Ortolani di Bordonaro 90015 Cefalù PA Italy,Modern Sicilian restaurant with sea-view terrace.,Even the cutlery enjoys the view.,cefalu;restaurant;fine-dining;sea-view,https://goo.gl/maps/JGX7SBzZp6z1nF8H8,3,bad_source_url
cefalu_pasticceria_cappuccini_01,Cefalù,Centro Storico,cafe,Pasticceria Cappuccini,38.041,14.0229,Via Candeloro 37 90015 Cefalù PA Italy,Historic bakery known for cannoli and almond biscuits.,Sugar and sea breeze take turns performing miracles.,cefalu;bakery;dessert;local,https://goo.gl/maps/qTtVD4PQ4QowDEfz5,2,bad_source_url
comiso_duomo_01,Comiso,Centro Storico,church,Duomo di San Biagio,36.9493,14.6062,Piazza Fonte Diana 97013 Comiso RG Italy,18th-century Baroque cathedral with bell tower and marble façade.,Faith rendered in limestone and sunlight.,comiso;church;baroque;heritage;city-center,https://it.wikipedia.org/wiki/Comiso,4,
comiso_fontana_diana_01,Comiso,Centro Storico,monument,Fontana di Diana,36.9492,14.6061,Piazza Fonte Diana 97013 Comiso RG Italy,Central fountain symbol of the town.,"inspired by the goddess Diana., The water knows all the gossip; it’s been listening since 1607.",comiso;monument;fountain;heritage;symbol,https://sicilyreview.com/comiso.html,2,
comiso_castello_01,Comiso,Centro Storico,castle,Castello dei Naselli d’Aragona,36.9487,14.6046,Via Castello 97013 Comiso RG Italy,Medieval fortress residence of the Naselli counts.,Stone pride with baroque windows grafted on medieval bones.,comiso;castle;heritage;architecture,https://it.wikipedia.org/wiki/Comiso,3,
comiso_chiesa_annunziata_01,Comiso,Centro Storico,church,Chiesa dell’Annunziata,36.9489,14.6066,Via San Biagio 97013 Comiso RG Italy,Baroque church with single nave and rich stuccos.,"Candles, plaster angels, and the hum of devotion.",comiso;church;baroque;art;heritage,https://goo.gl/maps/TfeR9M6d4EMV87sv9,2,bad_source_url
comiso_chiesa_maria_delle_grazie_01,Comiso,Centro Storico,church,Chiesa di Santa Maria delle Grazie,36.9499,14.6052,Via Generale Girlando 97013 Comiso RG Italy,15th-century church with gothic-catalan elements.,Grace sculpted before minimalism existed.,comiso;church;gothic;heritage,https://goo.gl/maps/FuKNn4V2e91oCCx58,2,bad_source_url
comiso_museo_civico_01,Comiso,Centro Storico,museum,Museo Civico di Storia Naturale,36.9501,14.605,Via degli Studi 1 97013 Comiso RG Italy,Local museum with fossils.,"flora, and Etna lava samples., A love letter to rocks that outlived us all.",comiso;museum;science;local-history,https://sicilyreview.com/comiso.html,1,
comiso_porta_urban_gate_01,Comiso,Centro Storico,monument,Porta del Vento,36.9476,14.6071,Via Monsignor Rimmaudo 97013 Comiso RG Italy,Surviving 15th-century city gate once leading to the countryside.,A threshold still waiting for travelers.,comiso;monument;gate;heritage,https://goo.gl/maps/xKDNn7Jw5eNttH3H7,2,bad_source_url
comiso_municipio_piazza_01,Comiso,Centro Storico,square,Piazza Fonte Diana,36.9491,14.606,Piazza Fonte Diana 97013 Comiso RG Italy,Main square lined with cafés and palazzi.,"Espresso and politics, neatly blended.",comiso;square;local-life;cafe;urban,https://goo.gl/maps/QYjAWg2yCip1mA8U9,1,bad_source_url
comiso_monna_lisa_bar_01,Comiso,Centro Storico,cafe,Bar Monna Lisa,36.949,14.6058,Piazza Fonte Diana 5 97013 Comiso RG Italy,Historic café known for pastries and granita.,Sugar is the local currency here.,comiso;cafe;granita;local;historic,https://goo.gl/maps/Tc1YguRhzpKa43yK8,1,bad_source_url
comiso_pasticceria_di_pasquale_01,Comiso,Centro Storico,cafe,Pasticceria Di Pasquale,36.9485,14.6063,Via Generale Girlando 40 97013 Comiso RG Italy,Family pastry shop famous for cannoli and pistachio tarts.,Perfection dusted in powdered sugar.,comiso;pastry;dessert;local;heritage,https://goo.gl/maps/RGZrGmYxVsyP5yVN9,2,bad_source_url
comiso_parco_archeologico_01,Comiso,Cozzo Lupo,archaeology,Parco Archeologico di Cozzo Lupo,36.9562,14.6029,Contrada Cozzo Lupo 97013 Comiso RG Italy,Excavations with Greek and Roman remains outside the town.,Time piles up politely here.,comiso;archaeology;heritage;outdoors,https://sicilyreview.com/comiso.html,3,
comiso_ex_base_nato_01,Comiso,Magliocco,heritage,Ex Base NATO di Comiso,36.9969,14.6062,Strada per Magliocco Airport 97013 Comiso RG Italy,Former NATO missile base turned airport and industrial zone.,Ghosts of the Cold War whisper in Sicilian dialect.,comiso;heritage;nato;modern-history,https://en.wikipedia.org/wiki/Comiso_Airport,4,
comiso_aeroporto_pio_la_torre_01,Comiso,Magliocco,transport,Aeroporto di Comiso “Pio La Torre”,36.9944,14.6073,Strada per Magliocco Airport 97013 Comiso RG Italy,Regional airport named after anti-mafia activist Pio La Torre.,Arrivals hall of equal parts hope and bureaucracy.,comiso;transport;airport;modern,https://en.wikipedia.org/wiki/Comiso_Airport,2,
comiso_fontana_villa_comunale_01,Comiso,Villa Comunale,park,Villa Comunale di Comiso,36.9508,14.6085,Viale della Resistenza 97013 Comiso RG Italy,Public park with 19th-century fountain and shady paths.,Love and politics share the benches.,comiso;park;heritage;local-life,https://goo.gl/maps/v6pZp3T5xkb2rjHs6,1,bad_source_url
comiso_trattoria_cantina_siciliana_01,Comiso,Centro Storico,restaurant,Cantina Siciliana,36.9488,14.6065,Via San Biagio 11 97013 Comiso RG Italy,Family trattoria serving local ragusano cheese and wine.,"Wood tables, red wine, and eternal Sunday.",comiso;restaurant;local;cheese;wine,https://goo.gl/maps/pzwr7M9CBQxA4aCd9,2,bad_source_url
comiso_osteria_biondi_01,Comiso,Centro Storico,restaurant,Osteria Biondi,36.9487,14.6059,Via Attilio Regolo 12 97013 Comiso RG Italy,Small osteria known for homemade ravioli and Nero d’Avola.,Hospitality seasoned with sarcasm and oregano.,comiso;restaurant;local;authentic,https://goo.gl/maps/9TkCsyNGEGVqKpDz7,2,bad_source_url
donnafugata_castello_01,Donnafugata,Centro Storico,castle,Castello di Donnafugata,36.9276,14.5618,Contrada Donnafugata 97100 Ragusa RG,Neo-Gothic castle from the 19th century surrounded by gardens and legend.,Marble corridors whisper about queens who ran away and never stopped.,donnafugata;castle;heritage;museum;garden,https://en.wikipedia.org/wiki/Castello_di_Donnafugata,4,
donnafugata_giardino_01,Donnafugata,Castello,garden,Giardino Storico del Castello,36.9272,14.5612,Contrada Donnafugata 97100 Ragusa Italy,Formal garden with labyrinth.,"citrus trees and statues., Cicadas do the narration for free.",donnafugata;garden;heritage;outdoors,https://goo.gl/maps/7y8uXjFRdo6uJrCN6,2,bad_source_url
donnafugata_labirinto_01,Donnafugata,Castello,attraction,Labirinto del Castello,36.9275,14.5619,Inside Castello grounds,Stone labyrinth built in the 19th century for noble amusement.,"Even lost, you’ll look sophisticated.",donnafugata;labyrinth;historic;fun,https://goo.gl/maps/X5YNuMqAcAFRKiX76,2,bad_source_url
donnafugata_winery_ragusa_01,Donnafugata,Contrada Donnafugata,shop,Donnafugata Winery (Ragusa Estate),36.9249,14.5662,Contrada Donnafugata 97100 Ragusa RG,Flagship wine estate producing Nero d’Avola.,"Frappato and Moscato., Every grape knows it’s destined for a bottle with a story.",donnafugata;winery;vineyard;wine;heritage,https://www.donnafugata.it/en/,4,
donnafugata_winery_marsala_01,Marsala,Contrada Pantaleo,shop,Donnafugata Winery Marsala Cellars,37.8086,12.4698,Via Lipari 18 91025 Marsala TP,Historic Marsala wine cellars of the Donnafugata brand.,Barrels breathe like old monks in the dark.,marsala;winery;heritage;wine;aging,https://www.donnafugata.it/en/wineries/marsala-cellars/,3,
donnafugata_tasting_room_01,Donnafugata,Castello,cafe,Enoteca del Castello,36.9269,14.5614,Piazza del Castello 97100 Ragusa RG,Wine tasting bar next to the castle featuring local labels.,"A glass, a breeze, and no pressing reason to leave.",donnafugata;winebar;local;heritage,https://goo.gl/maps/ESLU8LzGRpbY7Ehx6,2,bad_source_url
donnafugata_osteria_01,Donnafugata,Centro Storico,restaurant,Osteria del Castello,36.9278,14.5624,Via Castello 2 97100 Ragusa RG,Traditional Sicilian cuisine with estate wines and olive oil.,Every bite seems composed for a slow camera pan.,donnafugata;restaurant;local;wine;heritage,https://goo.gl/maps/yVbPzLGN5H3bduwq5,3,bad_source_url
donnafugata_oleificio_01,Donnafugata,Contrada Zisa,shop,Oleificio Zisa,36.9238,14.5687,Contrada Zisa 97100 Ragusa RG Italy,Small olive oil producer near the vineyards with tastings available.,Green gold poured with the reverence of confession.,donnafugata;olive;local;artisan,https://goo.gl/maps/mXKkZhSCbZzZ5FQZ6,2,bad_source_url
donnafugata_agriturismo_01,Donnafugata,Contrada Cava d’Ispica,agriturismo,Agriturismo Casina di Donnafugata,36.9194,14.5751,Contrada Cava d’Ispica 97100 Ragusa RG Italy,Rural stay with vineyard views.,"home cooking and silence., Dinner ends with wine and soft conspiracy theories about fate.",donnafugata;agriturismo;local;wine;stay,https://goo.gl/maps/nSkRwq7TFmYh4eYF8,3,bad_source_url
donnafugata_fattoria_01,Donnafugata,Contrada Camemi,farm,Fattoria Camemi,36.9217,14.5733,Contrada Camemi 97100 Ragusa RG,Farm producing cheese and cured meats served with Donnafugata wines.,The goat bells provide background music for eternity.,donnafugata;farm;local;food;heritage,https://goo.gl/maps/3a1p4Kzj4DN8tAaz5,3,bad_source_url
donnafugata_panificio_01,Donnafugata,Centro Storico,shop,Panificio di Donnafugata,36.928,14.5615,Via Castello 5 97100 Ragusa RG Italy,Bakery making local pane di casa and biscotti di vino.,The smell could make an atheist weep.,donnafugata;bakery;local;food;heritage,https://goo.gl/maps/6fZB5DtsA5jCKyGb6,1,bad_source_url
donnafugata_san_giuseppe_church_01,Donnafugata,Centro Storico,church,Chiesa di San Giuseppe,36.9272,14.5621,Piazza del Castello 97100 Ragusa RG Italy,Small church beside the castle once used by local nobility.,Modesty framed by marble.,donnafugata;church;heritage;baroque,https://goo.gl/maps/MmE1wZc8fVuY1vKz6,2,bad_source_url
enna_castello_lombardia_01,Enna,Centro Storico,castle,Castello di Lombardia,37.5669,14.2799,Piazza Napoleone Colajanni 94100 Enna EN,One of the largest medieval castles in Sicily.,"offering sweeping views over central Sicily., Wind, stone, and a silence thick enough to slice.",enna;castle;heritage;view;historic,https://en.wikipedia.org/wiki/Castello_di_Lombardia,4,
enna_torre_federico_ii_01,Enna,Centro Storico,monument,Torre di Federico II,37.5636,14.2811,Via Torre di Federico II 94100 Enna EN,Octagonal tower from the 13th century surrounded by a public park.,Geometry and empire wrapped in eucalyptus scent.,enna;tower;heritage;park,https://goo.gl/maps/3B5h3E7DKdEFhrpX8,3,bad_source_url
enna_duomo_01,Enna,Centro Storico,church,Duomo di Enna,37.5658,14.2797,Piazza Duomo 94100 Enna EN Italy,Majestic cathedral rebuilt after the 15th-century fire.,"Gold, fresco, and the stubborn patience of faith.",enna;cathedral;baroque;heritage,https://en.wikipedia.org/wiki/Enna_Cathedral,4,
enna_piazza_umberto_01,Enna,Centro Storico,square,Piazza Umberto I,37.5661,14.2785,Piazza Umberto I 94100 Enna EN Italy,Central square framed by cafés.,"town hall, and local chatter., Every bench holds a political debate disguised as small talk.",enna;square;cafe;urban;local-life,https://goo.gl/maps/6jYo5oBMQJbyH9Zc6,1,bad_source_url
enna_museo_alessi_01,Enna,Centro Storico,museum,Museo Alessi,37.5662,14.2799,Piazza Mazzini 94100 Enna EN Italy,Archaeological museum with artifacts from prehistory to medieval times.,"Dust, glass, and eternity politely arranged.",enna;museum;archaeology;heritage,https://goo.gl/maps/GXxk4SHeRrZkSySY8,2,bad_source_url
enna_lago_pergusa_01,Enna,Pergusa,nature,Lago di Pergusa,37.5133,14.3214,Contrada Pergusa 94100 Enna EN Italy,Volcanic lake surrounded by a natural reserve and race circuit.,The myth of Persephone haunts the reeds and tire marks.,enna;lake;nature;myth;outdoors,https://en.wikipedia.org/wiki/Lake_Pergusa,3,
enna_autodromo_pergusa_01,Enna,Pergusa,activity,Autodromo di Pergusa,37.5158,14.3267,Via dell’Autodromo 94100 Enna EN Italy,Historic racing circuit encircling Lago di Pergusa.,Engines roar where nymphs once danced.,enna;race;motorsport;heritage,https://en.wikipedia.org/wiki/Autodromo_di_Pergusa,2,
enna_rocca_di_cerere_01,Enna,Centro Storico,archaeology,Rocca di Cerere,37.568,14.2842,Via Roma Alta 94100 Enna EN Italy,Ancient sanctuary dedicated to the goddess Ceres.,A stone whisper older than reason.,enna;archaeology;myth;heritage,https://it.wikipedia.org/wiki/Rocca_di_Cerere,4,
enna_belvedere_marconi_01,Enna,Centro Storico,viewpoint,Belvedere Marconi,37.5665,14.2789,Viale Marconi 94100 Enna EN Italy,Panoramic viewpoint over the Sicilian hinterland.,A balcony so high it feels like gossiping with clouds.,enna;viewpoint;photo;cityscape,https://goo.gl/maps/hQ8cGbqmhK9TzQpN8,2,bad_source_url
enna_bar_umberto_01,Enna,Centro Storico,cafe,Bar Umberto,37.5663,14.2787,Piazza Umberto I 8 94100 Enna EN Italy,Historic café for espresso and cassatine.,The spoons clink in rhythm with old arguments.,enna;cafe;local;historic;dessert,https://goo.gl/maps/E3G7dQ3MnqK76W5a7,1,bad_source_url
enna_trattoria_da_toto_01,Enna,Centro Storico,restaurant,Trattoria da Totò,37.5659,14.2782,Via Roma 22 94100 Enna EN Italy,Local favorite serving pasta alla Norma and grilled lamb.,Aroma of basil and bragging rights fill the air.,enna;restaurant;local;food;heritage,https://goo.gl/maps/c2EKn8rK3yZ1Zkns9,2,bad_source_url
enna_pasticceria_alessi_01,Enna,Centro Storico,shop,Pasticceria Alessi,37.5657,14.2794,Via Roma 18 94100 Enna EN Italy,Family bakery offering cannoli.,"cassata, and almond biscuits., Sugar with a side of nostalgia.",enna;bakery;dessert;local;heritage,https://goo.gl/maps/nvE68e2yRM1DhRZL8,1,bad_source_url
enna_enoteca_il_vicolo_01,Enna,Centro Storico,bar,Enoteca Il Vicolo,37.5656,14.2788,Via Roma 11 94100 Enna EN Italy,Small wine bar featuring Sicilian reds and antipasti.,Wine poured slower than time moves.,enna;bar;wine;local-life;heritage,https://goo.gl/maps/5Qy6YJujdmxmpTMS8,2,bad_source_url
enna_monte_salida_trail_01,Enna,Outskirts,trail,Sentiero Monte Salida,37.5772,14.2874,Trailhead SP28 94100 Enna EN,Hiking route connecting Enna Alta to rural viewpoints.,Each step downhill adds a century to history.,enna;trail;hiking;nature,https://goo.gl/maps/oyy8eTnD6X82QEvx8,2,bad_source_url
enna_casa_museo_nino_di_nardo_01,Enna,Centro Storico,museum,Casa Museo Nino Di Nardo,37.5655,14.2796,Via Roma 26 94100 Enna EN Italy,House-museum preserving works of local sculptor Nino Di Nardo.,Marble dust and memory share the same shelf.,enna;museum;art;local;heritage,https://goo.gl/maps/xnaxAh6DWfEu6Nqa7,2,bad_source_url
enna_ristorante_giardino_di_venere_01,Enna,Pergusa,restaurant,Ristorante Giardino di Venere,37.5142,14.3226,Via dell’Autodromo 11 94100 Enna EN Italy,Garden restaurant by the lake offering seasonal Sicilian dishes.,Olive oil glows like gossip under the lanterns.,enna;restaurant;local;view;lakeside,https://goo.gl/maps/wu2GkJXkqHkUqjxt8,3,bad_source_url
enna_ceramiche_artistiche_01,Enna,Centro Storico,shop,Ceramiche Artistiche Ennesi,37.566,14.2791,Via Roma 15 94100 Enna EN Italy,Small artisan studio selling hand-painted pottery and tiles.,Color and patience living together peacefully.,enna;shop;ceramics;artisan,https://goo.gl/maps/Sgbv2Smz4nK5yZ7Y7,2,bad_source_url
enna_gelateria_federico_01,Enna,Centro Storico,cafe,Gelateria Federico,37.5658,14.2793,Via Roma 10 94100 Enna EN Italy,Gelato shop famous for hazelnut and pistachio flavors.,Cold sweetness softens the fortress mood.,enna;gelato;dessert;local,https://goo.gl/maps/ZCSPLkZzTnBRxSmx5,1,bad_source_url
enna_chiesa_san_francesco_01,Enna,Centro Storico,church,Chiesa di San Francesco d’Assisi,37.5674,14.2803,Via San Francesco 94100 Enna EN Italy,13th-century Franciscan church with Gothic portal and frescoes.,Hushed stone where light rehearses for heaven.,enna;church;gothic;heritage,https://goo.gl/maps/Cmwc4tCqQHBL1tA18,3,bad_source_url
enna_trattoria_del_belvedere_01,Enna,Centro Storico,restaurant,Trattoria del Belvedere,37.5666,14.2789,Viale Marconi 5 94100 Enna EN Italy,Home-style Sicilian cooking with panoramic views.,Eggplant tastes better when eaten above the clouds.,enna;restaurant;local;view;authentic,https://goo.gl/maps/VfGZtReCFgTwBQWe6,2,bad_source_url
erice_castello_venere_01,Erice,Centro Storico,castle,Castello di Venere,38.0382,12.5869,Viale Conte Pepoli 91016 Erice TP,Norman castle built on the site of a temple to Venus Erycina with panoramic views over the coast.,Wind tastes of sea and mythology here.,erice;castle;heritage;view;myth,https://en.wikipedia.org/wiki/Castello_di_Venere,4,
erice_giardini_del_balio_01,Erice,Centro Storico,park,Giardini del Balio,38.0386,12.5876,Viale del Balio 91016 Erice TP,Gardens next to the castle overlooking Trapani and the Egadi Islands.,"Stone, sky, and silence in perfect symmetry.",erice;park;view;nature;heritage,https://goo.gl/maps/NtTQJ6asvuqCzzHJA,2,bad_source_url
erice_duomo_01,Erice,Centro Storico,church,Duomo di Erice (Chiesa Madre),38.0377,12.5844,Viale Pietro Bontade 91016 Erice TP,14th-century Gothic church with ornate interior and tall bell tower.,Light drips through stone like honey.,erice;church;gothic;heritage,https://en.wikipedia.org/wiki/Erice,4,
erice_torre_campanaria_01,Erice,Centro Storico,monument,Torre Campanaria,38.0378,12.5842,Piazza Matrice 91016 Erice TP Italy,Detached bell tower beside the cathedral offering views across the town.,Each chime resets the horizon.,erice;tower;heritage;view,https://goo.gl/maps/nWyyJh7yk2dN8DWu9,3,bad_source_url
erice_pasticceria_maria_grammatico_01,Erice,Centro Storico,cafe,Pasticceria Maria Grammatico,38.038,12.5857,Via Vittorio Emanuele 14 91016 Erice TP,Iconic pastry shop famous for almond sweets and genovesi.,"Sugar, patience, and convent secrets wrapped in paper.",erice;pastry;dessert;heritage;local,https://www.mariagrammatico.it/,4,
erice_piazza_umberto_01,Erice,Centro Storico,square,Piazza Umberto I,38.0381,12.5854,Piazza Umberto I 91016 Erice TP Italy,Main square with cafés.,"ceramic shops, and local bustle., Espresso, echoes, and a cold wind that minds its own business.",erice;square;cafe;heritage,https://goo.gl/maps/mtKzvAbPcF5td4tN8,1,bad_source_url
erice_museo_cordici_01,Erice,Centro Storico,museum,Museo Cordici,38.0384,12.5856,Viale Conte Agostino Pepoli 91016 Erice TP Italy,Museum inside Palazzo Municipale with archaeological finds and art.,A quiet argument between centuries.,erice;museum;heritage;art,https://goo.gl/maps/nkt5xGhA9SpbGLJq8,2,bad_source_url
erice_porta_trapani_01,Erice,Centro Storico,monument,Porta Trapani,38.0376,12.5852,Viale Porta Trapani 91016 Erice TP Italy,Ancient city gate and cable-car station entry point to the town.,The doorway between chaos below and clouds above.,erice;gate;heritage;view,https://goo.gl/maps/AKM5y7yJt2rRr6kK9,2,bad_source_url
erice_funivia_01,Erice,Trapani,transport,Funivia Trapani–Erice,38.0167,12.5586,Via Capua 5 91100 Trapani TP,Cable car connecting Trapani to Erice with breathtaking views of the coast.,Heights cure most sins.,erice;funicular;transport;view,https://goo.gl/maps/kC5cK5z1y4cKo9Z96,2,bad_source_url
erice_ceramiche_cordaro_01,Erice,Centro Storico,shop,Ceramiche Cordaro,38.0379,12.5855,Via Vittorio Emanuele 37 91016 Erice TP,Handmade ceramics workshop continuing ancient Sicilian designs.,"Clay, fire, and the ghost of a perfectionist.",erice;shop;ceramics;artisan,https://goo.gl/maps/68XG4x4sv3Fnb8vR9,2,bad_source_url
erice_ristorante_moderno_01,Erice,Centro Storico,restaurant,Ristorante Monte San Giuliano,38.0383,12.5863,Via Vittorio Emanuele 22 91016 Erice TP,Traditional restaurant known for couscous trapanese and fresh fish.,Aromas wrestle for dominance — saffron usually wins.,erice;restaurant;seafood;local;heritage,https://goo.gl/maps/sL5yJ9hGz4x1USec6,3,bad_source_url
erice_bar_del_belvedere_01,Erice,Centro Storico,cafe,Bar del Belvedere,38.0387,12.5878,Viale del Balio 3 91016 Erice TP,Café with panoramic terrace overlooking Trapani and Egadi Islands.,Coffee and altitude — a dangerous combination for reflection.,erice;cafe;view;heritage,https://goo.gl/maps/yP4E4BNVjEENp4wP8,2,bad_source_url
erice_enoteca_ericina_01,Erice,Centro Storico,bar,Enoteca Ericina,38.0381,12.585,Via Vittorio Emanuele 18 91016 Erice TP,Wine bar with local labels including Marsala and Alcamo DOC.,The bartender knows both your taste and your secrets.,erice;bar;wine;local;heritage,https://goo.gl/maps/hiQLnP9UN7Df17uA8,2,bad_source_url
erice_belvedere_pepoli_01,Erice,Centro Storico,viewpoint,Belvedere Pepoli,38.0388,12.5893,Viale Conte Pepoli 91016 Erice TP Italy,Viewing platform with panoramic views over Trapani and the sea.,Every gust of wind carries a rumor from Africa.,erice;viewpoint;photo;nature,https://goo.gl/maps/nkSfMqZ9CwSvW8LP9,2,bad_source_url
erice_pepoli_tower_01,Erice,Centro Storico,monument,Torretta Pepoli,38.0391,12.5898,Viale Conte Pepoli 91016 Erice TP Italy,Small neo-Gothic tower built by Count Agostino Pepoli as a study retreat.,A tower for thinking too much — perfectly Sicilian.,erice;tower;heritage;architecture,https://goo.gl/maps/RyHjPsV8rECPzvYz8,2,bad_source_url
erice_trattoria_la_pentolaccia_01,Erice,Centro Storico,restaurant,Trattoria La Pentolaccia,38.0375,12.5841,Via Vittorio Emanuele 70 91016 Erice TP,Local trattoria with Sicilian comfort food and views toward Monte Cofano.,"No rush, no Wi-Fi, just good sauce.",erice;restaurant;local;heritage,https://goo.gl/maps/WuWyKuRLJ6kmV4E69,2,bad_source_url
erice_chiesa_san_giuliano_01,Erice,Centro Storico,church,Chiesa di San Giuliano,38.0372,12.584,Via San Giuliano 91016 Erice TP Italy,16th-century church with frescoed dome and baroque altar.,Faith here feels handmade.,erice;church;heritage;baroque,https://goo.gl/maps/ZRcD8xK89xZfpZBdA,3,bad_source_url
erice_laboratorio_dolciario_01,Erice,Centro Storico,shop,Laboratorio Dolciario Grammatico,38.0379,12.5858,Via Vittorio Emanuele 16 91016 Erice TP,Confectionery workshop associated with Maria Grammatico’s patisserie.,Almond paste and discipline in equal measure.,erice;shop;dessert;heritage,https://goo.gl/maps/9Wcpzx9kX9K9U77c9,3,bad_source_url
erice_trail_monte_cofano_01,Erice,Outskirts,trail,Sentiero per Monte Cofano,38.0669,12.6664,Trailhead near Custonaci TP,Scenic hiking route from Erice slopes to the Monte Cofano Reserve.,"Dust, thyme, and sea wind fighting for dominance.",erice;trail;hiking;nature,https://goo.gl/maps/yjscc1i1gVxwbVWX6,2,bad_source_url
erice_bottega_pepoli_01,Erice,Centro Storico,shop,Bottega Pepoli,38.0385,12.5862,Via Vittorio Emanuele 32 91016 Erice TP,Artisan boutique with handmade lace and local crafts.,Delicate proof that patience is genetic here.,erice;shop;artisan;heritage,https://goo.gl/maps/9X3ScjCw5rKpr8r19,1,bad_source_url
castellammare_belvedere_ponte_bagni,Castellammare del Golfo,Ponte Bagni,viewpoint,Belvedere Ponte Bagni,38.00672,12.90753,SP2 (Ponte Bagni),Roadside viewpoint over inland hills and baths.,"Steam in the valley, swallows in the sky.",viewpoint;inland,https://it.wikipedia.org/wiki/Terme_Segestane,1,
castellammare_centro_corso_garibaldi,Castellammare del Golfo,Centro Storico,street,Corso Garibaldi,38.02883,12.88274,Corso Garibaldi,Main street for the evening passeggiata.,"Click of heels, clink of cups.",street;shopping;cafes,https://www.visitcastellammare.it/cosa-fare/passeggiata,1,
catania_cafe_savia_01,Catania,Via Etnea,cafe,Caffè Savia,37.5111,15.0863,Via Etnea 302 95129 Catania,Historic pastry bar since 1897 famous for arancini and cannoli.,The scent of frying rice and sugar makes time loop.,catania;cafe;pastry;historic;local,https://goo.gl/maps/x5sKuswXSaRkCrKX9,4,bad_source_url
catania_bar_spinella_01,Catania,Via Etnea,cafe,Bar Spinella,37.5114,15.0861,Via Etnea 292 95129 Catania,Neighbor and rival to Savia — known for granita and brioche.,Two bars sharing a century-long argument about almonds.,catania;cafe;granita;local-life,https://goo.gl/maps/Rrp2f6bpgxnAkhM76,3,bad_source_url
catania_trattoria_daantonio_01,Catania,Centro Storico,trattoria,Trattoria da Antonio,37.503,15.0889,Via Castello Ursino 59 95121 Catania,Old-school trattoria near Castello Ursino — pasta alla norma is law.,Red wine stains count as table decoration.,catania;trattoria;local;heritage,https://goo.gl/maps/6DKWq7FiDkDNLZPq5,3,bad_source_url
catania_trattoria_uzeddu_01,Catania,Centro Storico,trattoria,Trattoria U Z Ddu Vicchiarellu,37.5041,15.0868,Via G. Garibaldi 39 95121 Catania,Family place hidden in the alleys; cheap wine included.,Laughter echoes long after closing.,catania;local;authentic;food,https://goo.gl/maps/SH5eEqKfZ9Fv7sWZ7,3,bad_source_url
catania_chiosco_bellini_01,Catania,Via Etnea,kiosk,Chiosco Bellini,37.5106,15.0864,Opposite Villa Bellini Gate,Classic lemon-seltz spot under palms.,They serve philosophy with each lime slice.,catania;kiosk;local-life,https://goo.gl/maps/q8qFST8pPMu2UnnY8,3,bad_source_url
catania_bar_serra_01,Catania,Borgo,cafe,Bar Serra,37.5231,15.0868,Via Etnea 736 95128 Catania,Modern café with Etna view terrace.,Coffee foams while Etna grumbles back.,catania;cafe;modern;view,https://goo.gl/maps/cz6kkq7vwshCj8Q98,2,bad_source_url
catania_pasticceria_minutolo_01,Catania,Ognina,shop,Pasticceria Minutolo,37.5308,15.1081,Via De Carlo 4 95127 Catania,Local favorite for pistachio cakes and granita.,Sweetness without apology.,catania;bakery;local;dessert,https://goo.gl/maps/hCyaK2H9zFfHQthU8,2,bad_source_url
catania_pasticceria_menza_01,Catania,Picanello,shop,Pasticceria Menza,37.5233,15.1009,Via Regina Margherita 13 95127 Catania,Family pastry shop since 1937 — almond rules everything.,Sugar here has seniority rights.,catania;pastry;heritage,https://goo.gl/maps/qEbnT7PPfSwZyU6b6,3,bad_source_url
catania_pescheria_trattoria_pesce_azzurro_01,Catania,La Pescheria,restaurant,Trattoria Il Pesce Azzurro,37.5036,15.0884,Via Pardo 29 95121 Catania,Seafood grill inside the market.,Octopus smoke mingles with gossip.,catania;seafood;market;local,https://goo.gl/maps/YRBhS24vAq5PMQbp7,3,bad_source_url
catania_cafe_prestipino_01,Catania,Piazza Università,cafe,Pasticceria Prestipino,37.5037,15.0879,Piazza Università 6 95124 Catania,Elegant tea-room opposite the square.,Silver trays and unhurried spoons.,catania;cafe;historic;dessert,https://goo.gl/maps/FrXQ5hFb5pEo6Z6X9,3,bad_source_url
catania_enoteca_bonajuto_01,Catania,Centro Storico,shop,Enoteca Bonajuto,37.5035,15.0882,Via Museo Biscari 17,Local wine shop with Etna DOC focus.,Barrels breathe like sleeping cats.,catania;wine;shop;local,https://goo.gl/maps/hLqFRCqEELXMZpXj9,2,bad_source_url
catania_mercato_ogni_giorno_oddity_01,Catania,San Berillo,market,Mercatino delle Pulci (Via Pacini),37.5069,15.0908,Via Pacini 95124 Catania,Weekly flea market with vinyls and relics.,Every object has changed owners and opinions.,catania;market;vintage;oddities,https://goo.gl/maps/bd2uGH6h8yKUd8ySA,2,bad_source_url
catania_antiquario_carmen_01,Catania,San Berillo,shop,Antiquario Carmen,37.5073,15.0904,Via San Giuliano 40 95124 Catania,Antique store of clocks and old maps.,Time literally sells itself here.,catania;antique;oddities,https://goo.gl/maps/vyP6ezR2sbX6UkRVA,1,bad_source_url
catania_liotru_streetart_01,Catania,San Berillo,streetart,Liotru Street Art Alley,37.5068,15.0912,Via Coppola 95124 Catania,Open-air murals reviving the old quarter.,Color as civil disobedience.,catania;streetart;urban;revival,https://goo.gl/maps/46gNLMB4JXwPL5Ry7,3,bad_source_url
catania_bottega_pistacchio_01,Catania,Centro Storico,shop,Bottega del Pistacchio,37.5038,15.0885,Via Garibaldi 52 95121 Catania,Shop specializing in Bronte pistachio goods.,Green gold in every jar.,catania;shop;pistachio;local,https://goo.gl/maps/c79vEwSfjSL8nTtt7,2,bad_source_url
catania_bottega_ceramiche_01,Catania,Centro Storico,shop,Ceramiche De Fiore,37.504,15.0889,Via Teatro Greco 58,Hand-painted Sicilian tiles and plates.,Patterns argue about sunlight.,catania;ceramics;craft;local,https://goo.gl/maps/DYrY5oHSs2Da9P6G9,2,bad_source_url
catania_libreria_principessa_01,Catania,Centro Storico,shop,Libreria Principe Librario,37.5045,15.0892,Via Garibaldi 75 95121 Catania,Independent bookstore filled to the ceiling.,Paper has better memory than people.,catania;bookshop;independent;culture,https://goo.gl/maps/jfH1Zs1mD2mE3YkV8,1,bad_source_url
catania_teatro_coppola_01,Catania,Centro Storico,theatre,Teatro Coppola,37.5041,15.0865,Vico Castello Ursino 26,Self-managed theatre revived by artists.,Applause meets activism.,catania;theatre;independent;arts,https://goo.gl/maps/FtCXthddZxJhLhgu9,2,bad_source_url
catania_san_nicola_market_01,Catania,Piazza Dante,market,Mercato San Nicola (weekend event),37.5044,15.0835,Piazza Dante 95124 Catania,Artisanal weekend market with crafts and street food.,A temporary city that tastes of lemon oil and ink.,catania;market;craft;streetfood,https://goo.gl/maps/3M3vupn6o8Ew9dVp9,3,bad_source_url
catania_vineria_viccolo_stretto_01,Catania,Centro Storico,bar,Vineria Viccolo Stretto,37.5039,15.0879,Vicolo Stretto 5 95121 Catania,Tiny wine bar in Catania’s narrowest street.,The walls could toast each other if they tried.,catania;winebar;historic;local-life,https://goo.gl/maps/DxAhDPPZy58kM8cx6,2,bad_source_url
catania_oddity_elephant_toyshop_01,Catania,Centro Storico,oddity,Negozio dei Pupi e Giocattoli Antichi,37.504,15.0887,Via Garibaldi 41 95121 Catania,Tiny shop of Sicilian puppets and vintage toys.,Wood and string still believe in heroes.,catania;toys;folk;oddities,https://goo.gl/maps/ETK1DpAyRiGqfYkJ8,3,bad_source_url
catania_liotru_gelato_01,Catania,Centro Storico,cafe,Gelateria L’Elefante,37.5029,15.0872,Piazza Duomo corner,Granita under the city’s symbolic elephant.,Tourists order vanilla; locals order opinions.,catania;gelato;local-life;heritage,https://goo.gl/maps/9qkWq1rHZcz3bNFs6,2,bad_source_url
catania_orsa_maggiore_01,Catania,Via Teatro Massimo,club,Club Mercati Generali,37.4047,15.0506,Via Zia Lisa 237 95121 Catania,Legendary electronic music club in an old citrus depot.,Basslines bounce off stone like a second heartbeat.,catania;nightlife;music;warehouse,https://goo.gl/maps/5V7jzJr9yqipnyLt5,4,bad_source_url
catania_bar_coste_01,Catania,Centro Storico,bar,Boheme Mixology Bar,37.5045,15.0885,Via Gemmellaro 24 95131 Catania,Creative cocktails in San Berillo’s reborn quarter.,Gin and regret share the same glass.,catania;cocktails;nightlife;local,https://goo.gl/maps/qQRaZ9xDLeqzZedW8,3,bad_source_url
catania_monk_jazzclub_01,Catania,Centro Storico,bar,Monk Jazz Club,37.5048,15.0875,Via Scuto 19 95121 Catania,Intimate jazz venue near Ursino castle.,Saxophones sound like people thinking aloud.,catania;jazz;music;bar;local,https://goo.gl/maps/nf8V8eSMk17xRhAb7,3,bad_source_url
catania_liotru_brewery_01,Catania,Borgo,brewery,Etna Brewing Company Taproom,37.5209,15.0792,Via Monserrato 3 95128 Catania,Microbrewery pouring Etna Red Ale and citrus IPAs.,Malt meets lava minerals.,catania;brewery;craftbeer;local,https://goo.gl/maps/whYNx1gsqLzRrbU98,2,bad_source_url
catania_artigianato_legno_01,Catania,Centro Storico,workshop,Officina del Legno,37.5043,15.0886,Via Garibaldi 45 95121 Catania,Wood-carving studio restoring Sicilian marionettes.,Chisels hum like monks in rhythm.,catania;craft;wood;heritage,https://goo.gl/maps/xN5LZ1uW8aXwPc6J7,2,bad_source_url
catania_musica_via_crociferi_01,Catania,Via Crociferi,venue,Palazzo Asmundo di Gisira,37.5049,15.0893,Vicolo Gisira 5 95121 Catania,Restored palace hosting concerts and events.,Echoes share the rent with swallows.,catania;music;events;baroque,https://goo.gl/maps/pUVBvfDXpMRKq5WJ8,2,bad_source_url
catania_oddity_lava_jewelry_01,Catania,Centro Storico,shop,Lava Gioielli Etnei,37.5046,15.0888,Via Teatro Greco 42 95121 Catania,Artisan jeweler making pieces from cooled lava.,Volcano souvenirs with better manners.,catania;lava;craft;jewelry,https://goo.gl/maps/hxE5XzszXKkN5pw69,3,bad_source_url
catania_photo_lab_01,Catania,San Berillo,workshop,Camera Oscura Studio,37.5067,15.091,Via Coppola 36 95124 Catania,Analog photography lab and gallery.,Silver halide nostalgia club.,catania;photo;art;local,https://goo.gl/maps/MtvduHve7r82zUAA8,2,bad_source_url
catania_oriental_cine_oddity_01,Catania,Corso Sicilia,oddity,Ex-Cinema Oriente Façade,37.5081,15.0892,Corso Sicilia 42 95131 Catania,Decaying 1930s cinema front preserved as landmark.,Ghost marquee still waiting for lights.,catania;cinema;heritage;oddity,https://goo.gl/maps/LMkAMkK6vuJGh61p6,2,bad_source_url
catania_bookbar_macondo_01,Catania,San Berillo,bar,Macondo Wine & Book Bar,37.5069,15.0907,Via Pacini 18 95124 Catania,Book-lined bar with poetry nights.,Wine stains double as punctuation.,catania;bar;literary;local-life,https://goo.gl/maps/HP8cQp8Fy2xC4rHU7,2,bad_source_url
catania_ristorante_orsodipace_01,Catania,Centro Storico,restaurant,Osteria Orso di Pace,37.5042,15.0884,Via Reitano 46 95121 Catania,Slow-food osteria using Mount Etna produce.,Dinner feels like forgiveness.,catania;restaurant;slowfood;local,https://goo.gl/maps/7Qkny3d1D5sP2E5P8,3,bad_source_url
catania_craftbeer_lemalavoglia_01,Catania,Borgo,bar,Le Malavoglia Pub,37.5235,15.0869,Via Etnea 739 95128 Catania,Old pub named after Verga’s novel.,Literature drinks with hops.,catania;pub;literary;local,https://goo.gl/maps/VqkgY2o3ZsFk27FZ8,1,bad_source_url
catania_oddity_ashtrays_museum_01,Catania,San Cristoforo,oddity,Museo dell’Ashtray (private collection),37.4985,15.0859,Via Plebiscito 233 – by appointment,Private home collection of 3 000 ashtrays.,Proof that obsession is an art form.,catania;oddities;private;museum,https://goo.gl/maps/owv3pMZwMGGtwULz5,4,bad_source_url
catania_bottega_pane_neri_01,Catania,Piazza Stesicoro,shop,Panificio Neri,37.5081,15.088,Via Etnea 38 95131 Catania,Bakery famous for charcoal bread.,Loaves darker than Etna’s temper.,catania;bakery;artisan;trend,https://goo.gl/maps/AAeJpHcfuynPsn3W6,2,bad_source_url
catania_fishbar_uzeddu_02,Catania,La Pescheria,bar,Fish Bar ‘U Zzu Nicola’,37.5038,15.0885,Via Pardo 33 95121 Catania,Pop-up aperitivo bar inside fish market.,Anchovies with aperol—chaotic harmony.,catania;bar;seafood;streetfood,https://goo.gl/maps/1i5Wv2nP5YyowQFk7,3,bad_source_url
catania_zafferana_honeyhouse_01,Catania,Zafferana Etnea,shop,Casa del Miele,37.6822,15.0987,Via Roma 144 95019 Zafferana Etnea CT,Family honey producer at Etna’s slope.,Sweetness that hums before you taste it.,catania;zafferana;honey;local;artisan,https://goo.gl/maps/5UHvRVp2Y7Gaj6FJA,3,bad_source_url
catania_zafferana_parco_panchina_01,Catania,Zafferana Etnea,viewpoint,Panchina Gigante Etna View,37.6885,15.0941,Via Mazzullo 95019 Zafferana Etnea,Scenic “big bench” overlooking the valley.,You climb a bench to feel smaller.,catania;view;etna;art;photo,https://goo.gl/maps/XrCFfQkTSYLGph5N6,2,bad_source_url
catania_nicolosi_museo_etna_01,Catania,Nicolosi,museum,Museo dell’Etna,37.6245,15.0374,Via Etnea 107 95030 Nicolosi CT,Interactive museum on Etna’s geology.,The mountain tells its autobiography.,catania;museum;science;etna,https://goo.gl/maps/cAjGkwPVmDLuEF4B9,2,bad_source_url
catania_nicolosi_chalet_mongibello_01,Catania,Nicolosi,restaurant,Chalet Mongibello,37.6174,15.0209,Via Etnea 315 95030 Nicolosi CT,Mountain tavern serving mushroom pasta and vino sfuso.,Steam from the plate mimics the crater’s breath.,catania;restaurant;etna;local,https://goo.gl/maps/ZY5SADqW6MGqSkZy8,3,bad_source_url
catania_acicastello_istituto_pesca_01,Catania,Aci Castello,museum,Istituto di Biologia Marina,37.5553,15.1504,Via dei Ciclopi 43 95021 Aci Castello CT,Marine biology museum inside Norman castle complex.,Fish and frescoes under one roof.,catania;museum;sea;science,https://goo.gl/maps/N4H7wCDS4rQFikUM8,2,bad_source_url
catania_acitrezza_museum_ursino_01,Catania,Aci Trezza,museum,Museo Civico di Storia Naturale,37.5612,15.1623,Via Dietro Chiesa 11 Aci Trezza CT,Displays marine fossils and volcanic samples.,Nature with annotations in lava.,catania;museum;sea;volcano,https://goo.gl/maps/yMk1fBDWWgXwBaTH6,2,bad_source_url
catania_ogni_sunday_antiquariato_01,Catania,Corso Italia,market,Mercatino dell’Antiquariato Corso Italia,37.5131,15.0963,Corso Italia 95129 Catania,Monthly antique market of records and furniture.,Yesterday has better furniture anyway.,catania;market;antique;local-life,https://goo.gl/maps/Ppuk7JhYEKM2Q5Y56,2,bad_source_url
catania_museum_meteo_01,Catania,Centro Storico,museum,Museo Meteorologico Ursino Recoaro,37.5045,15.0883,Via Etnea 73 95131 Catania,Tiny weather museum tracking Etna winds.,Forecast: perpetual awe.,catania;museum;science;oddities,https://goo.gl/maps/sjGMfQpqFvq5HuM79,2,bad_source_url
catania_paterno_terme_01,Catania,Paternò,spa,Terme Romane di Paternò,37.5677,14.9008,Vico Terme Romane 95047 Paternò CT,Roman thermal ruins near the castle hill.,Steam once negotiated with emperors.,catania;roman;spa;heritage,https://goo.gl/maps/5v9e3oYw5CF3eJzR9,2,bad_source_url
cefala_diana_monte_chiarastella_01,Cefalà Diana,Chiarastella,nature,Monte Chiarastella Trail,37.9138,13.5204,Trailhead SP77 near Bagni Arabi,Hiking route to panoramic ridge east of the village.,Wind and thyme hold a joint monopoly on silence.,cefala_diana;hiking;nature;viewpoint,https://goo.gl/maps/zpmpnnbSC4LpENtz9,2,bad_source_url
donnafugata_ristorante_terra_rossa_01,Donnafugata,Contrada Bosco,restaurant,Ristorante Terra Rossa,36.9251,14.5655,SP60 Donnafugata–Ragusa,Local cuisine highlighting estate wines and seasonal produce.,Olive leaves flicker in rhythm with the clinking of glasses.,donnafugata;restaurant;local;farm-to-table,https://goo.gl/maps/KQfaM8Rvt5BLvuft6,2,bad_source_url
donnafugata_belvedere_01,Donnafugata,Outskirts,viewpoint,Belvedere Donnafugata,36.9287,14.5593,SP60 Scenic Point,Viewpoint overlooking vineyards and Hyblaean hills.,Every sunset here comes with a tasting note.,donnafugata;viewpoint;vineyard;photo,https://goo.gl/maps/HeYHh41JhrdZ2CeN7,2,bad_source_url
donnafugata_bike_tour_01,Donnafugata,Contrada Donnafugata,activity,Bike Trail Donnafugata–Ragusa Ibla,36.9236,14.569,Trail via SP60,Scenic cycling route through vineyards and olive groves between Ragusa and Ibla.,The wind smells like fennel and ambition.,donnafugata;bike;trail;nature,https://goo.gl/maps/sDUCksB1NydVwG1Z9,2,bad_source_url
